,index,Address,Latitude,Longitude,names
0,0,898 STATE ROUTE 4,46.3742,-123.78795,SMITH
1,1,2511 66TH PL,46.35054,-124.04266000000001,JOHNSON
2,2,610 BARNHART STREET,46.678375,-123.742065,WILLIAMS
3,3,159 UPPER NASELLE ROAD,46.371113,-123.759445,BROWN
4,4,1410 301ST PLACE,46.520546,-124.051506,JONES
5,5,30111 G STREET,46.520164,-124.05708,MILLER
6,6,1262 STATE ROUTE 6,46.604496000000005,-123.63016999999999,DAVIS
7,7,4466 TRESIZE ROAD,46.679344,-123.68211000000001,GARCIA
8,8,2014 JOE JOHNS ROAD,46.512096,-124.04399,RODRIGUEZ
9,9,2980 272ND ST,46.498940000000005,-124.03522,WILSON
10,10,1042 CROSSING STREET,46.67483,-123.70374,MARTINEZ
11,11,3304 224TH LANE,46.463423999999996,-124.032968,ANDERSON
12,12,5619 US HIGHWAY 101,46.50889,-123.88609,TAYLOR
13,13,29408 O STREET,46.514576,-124.049644,THOMAS
14,14,31 HURT ROAD,46.562909999999995,-123.62168,HERNANDEZ
15,15,2607 247TH PLACE,46.481113,-124.03899399999999,MOORE
16,16,4 NYBERG ROAD,46.346866999999996,-123.812775,MARTIN
17,17,21411 Q LN,46.45802,-124.04973000000001,JACKSON
18,18,10430 US HWY 101,46.761677,-123.754456,THOMPSON
19,19,852 FIR STREET,46.68182,-123.74838999999999,WHITE
20,20,1063 SUMMIT AVENUE,46.67219,-123.78384399999999,LOPEZ
21,21,34 BREEN ROAD,46.539303000000004,-123.46986000000001,LEE
22,22,263 JOE ROCKEY ROAD,46.662807,-123.73348999999999,GONZALEZ
23,23,1755 NELSON ROAD,46.66548,-123.694405,HARRIS
24,24,1218 GODFREY ST,46.69538,-123.74425500000001,CLARK
25,25,20610 CRANE PL,46.451344,-124.03769,LEWIS
26,26,13402 T LN,46.39901079999999,-124.04766540000001,ROBINSON
27,27,87 ELKHORN ROAD,46.77834,-123.73388999999999,WALKER
28,28,2429 EVERGREEN PARK RD,46.788253999999995,-124.07937,PEREZ
29,29,1504 268TH PL,46.496544,-124.04945,HALL
30,30,18409 SANDRIDGE ROAD,46.43531,-124.023026,YOUNG
31,31,17 NORTH VALLEY ROAD,46.371838000000004,-123.78246999999999,ALLEN
32,32,716 PLUM STREET,46.676308,-123.71971,SANCHEZ
33,33,1317 PAULDING STREET,46.67115,-123.68271000000001,WRIGHT
34,34,7003 ORTELIUS DRIVE,46.31895,-124.00438,KING
35,35,864 MUELLER STREET,46.67589,-123.70733999999999,SCOTT
36,36,912 OCEAN AVENUE,46.682293,-123.74492,GREEN
37,37,29509 G ST,46.516220000000004,-124.05706,BAKER
38,38,3765 LARKIN ROAD,46.739917999999996,-124.07493999999998,ADAMS
39,39,5650 US HWY 101,46.511112,-123.885994,NELSON
40,40,2805 228TH PLACE,46.467033,-124.03771,HILL
41,41,2800 224TH STREET,46.4642,-124.03795,RAMIREZ
42,42,321 11TH STREET,46.685913,-123.724014,CAMPBELL
43,43,1251 RAYMOND-SOUTH BEND RD,46.674133000000005,-123.74905,MITCHELL
44,44,24811 DELL PLACE,46.48172,-124.03528600000001,ROBERTS
45,45,25006 Z PL,46.483757000000004,-124.038734,CARTER
46,46,30108 J PLACE,46.52048,-124.05436,PHILLIPS
47,47,921 BIRD AVENUE,46.674459999999996,-123.71565,EVANS
48,48,35 MAPLE LEAF STREET,46.626293,-123.65368000000001,TURNER
49,49,261 CAMP ONE ROAD,46.65848,-123.66875,TORRES
50,50,708 PETERS ST,46.677085999999996,-123.744545,PARKER
51,51,10200 SANDRIDGE ROAD,46.376053000000006,-124.0268,COLLINS
52,52,1124 HARRISON AVE,46.6735,-123.74703000000001,EDWARDS
53,53,8 HUDZIAK ROAD,46.577457,-123.61923,STEWART
54,54,15 WILSON LANE,46.636772,-123.92196000000001,FLORES
55,55,30504 L PL,46.523727,-124.05236000000001,MORRIS
56,56,190 N NEMAH ROAD EAST,46.514538,-123.866745,NGUYEN
57,57,2468 STATE ROUTE 105,46.785076000000004,-124.084236,MURPHY
58,58,709 OLIVE ST,46.676840000000006,-123.70945,RIVERA
59,59,2705 SEA CREST AVE,46.37300379999999,-124.05436929999999,COOK
60,60,25004 SANDRIDGE RD,46.483096999999994,-124.03416399999999,ROGERS
61,61,28218 W LANE,46.507153,-124.04146999999999,MORGAN
62,62,1805 PARK AVENUE,46.693737,-123.7405,PETERSON
63,63,2304 300TH PL,46.51954,-124.04132,COOPER
64,64,35010 I PLACE,46.520157,-124.05498,REED
65,65,711 PLUM STREET,46.67633,-123.7197,BAILEY
66,66,50 BALE ROAD,46.684258,-123.77819,BELL
67,67,56 AIRPORT ROAD,46.684670000000004,-123.78306599999999,GOMEZ
68,68,1580 134TH LANE,46.399105,-124.04885,KELLY
69,69,2710 SEA CREST AVE,46.373021,-124.05411000000001,HOWARD
70,70,820 CALIFORNIA STREET,46.665894,-123.78461999999999,WARD
71,71,29008 M LANE,46.512367,-124.05202,COX
72,72,31508 J PLACE,46.53034,-124.05394,DIAZ
73,73,29012 S LANE,46.512383,-124.04583999999998,RICHARDSON
74,74,133 FALL RIVER ROAD,46.766045,-123.51471000000001,WOOD
75,75,1137 STATE ROUTE 4,46.359882,-123.76383999999999,WATSON
76,0,20807 CRANE PL,46.451862,-124.03773000000001,BROOKS
77,1,32901 R LN,46.491528,-124.04753999999998,BENNETT
78,3,No. 2 OCEAN AVENUE,46.6795708,-123.75933710000001,GRAY
79,5,2280 STATE RT 6,46.560072,-123.562256,JAMES
80,6,12211 Y PLACE,46.390491,-124.042023,REYES
81,7,274 STATE ROUTE 105,46.682320000000004,-123.762758,CRUZ
82,8,32108 K PLACE,46.53687,-124.05301999999999,HUGHES
83,9,75 HYLAND STRINGER RD,46.588770000000004,-123.63631000000001,PRICE
84,10,777 WILLAPA FIRST STREET,46.67664,-123.66835,MYERS
85,11,1717 KRAUSE ROAD,46.666283,-123.69033,LONG
86,12,1505 KRAUSE RD,46.668003000000006,-123.69036000000001,FOSTER
87,13,5660 CENTRAL STREET,46.67214,-123.66199499999999,SANDERS
88,14,6407 V PLACE,46.34852,-124.044945,ROSS
89,15,3003 WILLAPA RD,46.672874,-123.69825,MORALES
90,16,2375 COLORADO AVENUE,46.6746919,-123.76510990000001,POWELL
91,17,35208 I PLACE,46.52084,-124.05502,SULLIVAN
92,18,1133 BALLENTINE STREET,46.67188,-123.74071,RUSSELL
93,19,27840 Y PLACE,46.503757,-124.03935,ORTIZ
94,20,7 POLLARI ROAD,46.68233,-123.77571,JENKINS
95,21,20601 BIRCH PL,46.45111,-124.03908500000001,GUTIERREZ
96,22,1070 WHIPPLE AVENUE,46.741783,-124.08341000000001,PERRY
97,23,1158 BALLENTINE ST,46.671623,-123.74071,BUTLER
98,24,30110 W ST,46.52063,-124.04163,BARNES
99,25,15 ULLAKKO ROAD,46.350967,-123.8123,FISHER
100,26,1909 196TH ST,46.44373,-124.04857,HENDERSON
101,27,514 12TH STREET,46.688026,-123.72298400000001,COLEMAN
102,29,214 KNAPPTON ROAD,46.356761999999996,-123.81233999999999,SIMMONS
103,30,300 PARPALA ROAD,46.381122999999995,-123.84121,PATTERSON
104,31,501 SHOREVIEW DR S #403,46.348079999999996,-124.05819,JORDAN
105,32,994 SALMON CREEK ROAD,46.398525,-123.674705,REYNOLDS
106,33,7004 ORTELIUS DR,46.318946999999994,-124.004326,HAMILTON
107,34,15808 SANDRIDGE RD,46.416695000000004,-124.02183500000001,GRAHAM
108,35,2205 231ST LANE,46.46951,-124.04413000000001,KIM
109,36,2404 HUNT ST,46.67358,-123.702995,GONZALES
110,37,13509 SANDRIDGE ROAD,46.3993,-124.02373999999999,ALEXANDER
111,38,1010 WILLAPA ROAD,46.673813,-123.66936000000001,RAMOS
112,39,2210 266TH PLACE,46.494778000000004,-124.03969599999999,WALLACE
113,40,31204 M STREET,46.527996,-124.05165,GRIFFIN
114,41,31200 N PL,46.52797,-124.05056,WEST
115,42,6902 ROCHELLE WAY,46.317463000000004,-124.00585,COLE
116,44,1410 275TH PL,46.50175,-124.0516,HAYES
117,46,23804 K PL,46.47508,-124.05553400000001,CHAVEZ
118,47,13220 SANDRIDGE ROAD,46.4004,-124.02356,GIBSON
119,48,168 STAUFFER ROAD,46.586906,-123.62136000000001,BRYANT
120,49,1127 LARCH STREET,46.694041999999996,-123.73945,ELLIS
121,51,501 12TH STREET APT #1,46.687984,-123.72296999999999,STEVENS
122,52,281 NORTH VALLEY ROAD,46.373546999999995,-123.75692,MURRAY
123,53,537 OSTMAN ROAD,46.66868,-123.73986000000001,FORD
124,54,1616 RIDDELL STREET,46.694687,-123.7428,MARSHALL
125,55,2508 265TH PLACE,46.49437,-124.03929,OWENS
126,57,654 MILL CREEK ROAD,46.62527,-123.59633999999998,MCDONALD
127,58,29524 I ST,46.51627,-124.05513,HARRISON
128,59,45 BALE ROAD,46.684162,-123.77820600000001,RUIZ
129,60,425 ELLIS ST,46.687847,-123.73155,KENNEDY
130,61,3700 OLDANI ROAD,46.668488,-123.6877,WELLS
131,63,1108 303RD PLACE,46.521534,-124.05266599999999,ALVAREZ
132,64,30506 I STREET,46.523340000000005,-124.0552,WOODS
133,65,585 STATE RT 401,46.270796000000004,-123.81920500000001,MENDOZA
134,66,1010 202ND LANE,46.448452,-124.05475,CASTILLO
135,67,1504 196TH STREET,46.443764,-124.05193,OLSON
136,68,4012 155TH ST,46.413853,-124.02238500000001,WEBB
137,69,1581 134TH PL,46.39915,-124.05241399999998,WASHINGTON
138,70,1128 STATE RT 6,46.614353,-123.64228999999999,TUCKER
139,71,620 LINCOLN AVE,46.67858,-123.74113,FREEMAN
140,73,730 WILLAPA AVENUE,46.660337,-123.82181299999999,BURNS
141,74,39 MONOHAN LANDING ROAD,46.694286,-123.73246,HENRY
142,75,303 8TH STREET,46.685722,-123.727356,VASQUEZ
143,76,2103 265TH PL,46.494246999999994,-124.04368999999998,SNYDER
144,77,501 12TH ST APT #1,46.687984,-123.72296999999999,SIMPSON
145,78,2707 234TH LN,46.471000000000004,-124.03773500000001,CRAWFORD
146,79,1504 SE IDAHO ST,46.342459999999996,-124.05254,JIMENEZ
147,80,17215 MILL LN,46.4259,-124.02698999999998,PORTER
148,81,435 7TH ST,46.687576,-123.72856000000002,MASON
149,82,669 WARD CREEK RD,46.726234000000005,-123.64200000000001,SHAW
150,83,169 N VALLEY ROAD,46.37373,-123.76675,GORDON
151,84,28613 Z STREET,46.509617,-124.038574,WAGNER
152,85,2742 STATE ROUTE 6,46.542365999999994,-123.50648999999999,HUNTER
153,86,2417 275TH PLACE,46.501236,-124.04156499999999,ROMERO
154,87,144 MONOHON LANDING RD,46.69583,-123.72729,HICKS
155,88,23812 J PLACE,46.513123,-124.05483000000001,DIXON
156,89,150 SOUTH FORK ROAD,46.627693,-123.69299,HUNT
157,90,15024 PACIFIC WAY,46.411159999999995,-124.05219,PALMER
158,91,719 MAIN STREET,46.674834999999995,-123.78179990000001,ROBERTSON
159,92,37 BALE ROAD,46.684013,-123.77820600000001,BLACK
160,93,120 ELK CREEK ROAD,46.707287,-123.71238999999998,HOLMES
161,95,1081 STATE ROUTE 4,46.363388,-123.76916000000001,STONE
162,96,15311 BIRCH STREET,46.412704,-124.03906,MEYER
163,97,223 KNAPPTON ROAD,46.357197,-123.81232,BOYD
164,98,1311 314TH PLACE,46.529613,-124.05214,MILLS
165,99,7302 V PL,46.355263,-124.04409,WARREN
166,100,270 JOE ROCKEY ROAD,46.662834000000004,-123.73183999999999,FOX
167,101,904 WILLAPA RD,46.674908,-123.66942,ROSE
168,102,19407 K PLACE,46.442879,-124.056003,RICE
169,103,1611 OCEAN BEACH BLVD S #3,46.341474,-124.05702600000001,MORENO
170,104,23807 K PLACE,46.47508,-124.05555,SCHMIDT
171,105,30205 X PLACE,46.520540000000004,-124.03907,PATEL
172,106,3010 STATE RT 6,46.544247,-123.47649399999999,FERGUSON
173,107,210 18TH STREET NE,46.3654439,-124.051588,NICHOLS
174,108,1306 324TH PLACE,46.537017999999996,-124.05125,HERRERA
175,109,3616 102ND ST,46.37542,-124.03048999999999,MEDINA
176,110,812 WYOMING ST,46.670475,-123.78466999999999,RYAN
177,111,20 FRANCES ROAD,46.54443,-123.52282,FERNANDEZ
178,112,3811 CRANBERRY RD,46.395924,-124.02847,WEAVER
179,113,811 BIRD AVE,46.674572,-123.71565,DANIELS
180,114,945 CLAY STREET,46.674606,-123.7181,STEPHENS
181,116,44 UPPER NASELLE RD,46.36748,-123.77141599999999,GARDNER
182,118,105 DIXON ROAD,46.74969,-123.76045,PAYNE
183,120,805 DURYEA STREET,46.686615,-123.72725,KELLEY
184,121,745 BARNHART STREET,46.676759999999994,-123.74203500000002,DUNN
185,122,348 PARPALA ROAD,46.386753000000006,-123.84348,PIERCE
186,123,1211 PARK AVENUE,46.693413,-123.74768999999999,ARNOLD
187,126,1120 GAYLORD ST,46.69396,-123.74306999999999,TRAN
188,127,323 8TH STREET,46.68589,-123.72736,SPENCER
189,128,11313 PACIFIC HIGHWAY,46.3496271,-124.05484799999999,PETERS
190,130,428 STATE ROUTE 105,46.683215999999994,-123.7823,HAWKINS
191,131,2722 234TH LN,46.471000000000004,-124.03788,GRANT
192,132,36 HYLAND STRINGER ROAD,46.58866,-123.63191,HANSEN
193,133,1109 196TH PLACE,46.4441315,-124.05291129999999,CASTRO
194,134,279 PARPALA ROAD,46.373814,-123.82923999999998,HOFFMAN
195,136,102 RAFF ROAD,46.38315,-123.73018,HART
196,138,1702 179TH LN,46.431664000000005,-124.0509,ELLIOTT
197,139,819 BALLENTINE STREET,46.675765999999996,-123.74077,CUNNINGHAM
198,140,1412 189TH PL,46.439353999999994,-124.05309,KNIGHT
199,141,2185 RAYMOND SOUTH BEND RD,46.669896,-123.760979,BRADLEY
200,142,2610 SEA CREST AVE N,46.371774,-124.05416699999999,CARROLL
201,143,25209 SANDRIDGE RD,46.489902,-124.03393999999999,HUDSON
202,144,4916 113TH STREET,46.383553000000006,-124.02153999999999,DUNCAN
203,145,980 WHIPPLE AVE,46.742053999999996,-124.088823,ARMSTRONG
204,148,23 DOYLE ROAD,46.565113000000004,-123.58881000000001,BERRY
205,149,29011 S LANE,46.512367,-124.04585,ANDREWS
206,150,8005 SANDRIDGE ROAD,46.360344,-124.02886000000001,JOHNSTON
207,152,1204 GODFREY STREET,46.694874,-123.74426000000001,RAY
208,153,28332 SANDRIDGE RD,46.508926,-124.03231000000001,LANE
209,154,4900 WILLAPA ROAD,46.670757,-123.67135,RILEY
210,155,1600 222ND PLACE,46.463093,-124.05067,CARPENTER
211,156,39 FRANCIS ROAD,46.542759999999994,-123.51614,PERKINS
212,157,1144 HOWARD STREET,46.69405,-123.74724599999999,AGUILAR
213,158,1107 SALMON CREEK ROAD,46.407071,-123.677273,SILVA
214,160,805 OYSTERVILLE ROAD,46.54797,-124.05644,RICHARDS
215,161,722 DURYEA STREET,46.6866,-123.72823999999999,WILLIS
216,162,1000 COLE AVENUE,46.674603000000005,-123.68637,MATTHEWS
217,163,1804 200TH LN,46.447006,-124.04744,CHAPMAN
218,164,2204 SID SNYDER DRIVE,46.345202,-124.045777,LAWRENCE
219,165,702 CHERRY STREET,46.677956,-123.72101,GARZA
220,166,15314 SANDRIDGE ROAD,46.412715999999996,-124.02226,VARGAS
221,168,4103 180TH PLACE,46.43246,-124.02486,WATKINS
222,169,1904 320TH PLACE,46.534058,-124.04522,WHEELER
223,170,754 WILLAPA SECOND ST,46.677036,-123.66738000000001,LARSON
224,172,1054 POPLAR LN,46.673138,-123.74893,CARLSON
225,173,2102 229TH PL,46.467983000000004,-124.04485,HARPER
226,174,1180 PAULDING STREET,46.672543,-123.68292,GEORGE
227,175,2000 224TH PLACE,46.464447,-124.04588999999999,GREENE
228,176,5375 ROOSEVELT ST,46.674973,-123.665924,BURKE
229,177,2104 272ND STREET,46.498928,-124.043846,GUZMAN
230,179,338 MONOHON LANDING ROAD,46.690059999999995,-123.70158400000001,MORRISON
231,180,3561 STATE ROUTE 105,46.7448,-124.08027,MUNOZ
232,181,925 HOWARD ST,46.692142,-123.74659,JACOBS
233,182,21310 BIRCH PL,46.456333,-124.037834,OBRIEN
234,184,20003 SANDRIDGE ROAD,46.447006,-124.02646000000001,LAWSON
235,185,19308 SANDRIDGE ROAD,46.441906,-124.02445,FRANKLIN
236,186,24013 J LANE,46.514977,-124.05476000000002,LYNCH
237,187,6808 CHATTAM WAY,46.31756,-124.00736,BISHOP
238,188,2221 BUSH AVE,46.695236,-123.73473,CARR
239,189,176 WARD CREEK,46.689484,-123.65588000000001,SALAZAR
240,190,20209 CRANE PL,46.448338,-124.03761000000002,AUSTIN
241,192,220 BUTTE CREEK ROAD,46.710365,-123.73855,MENDEZ
242,193,1 ULLAKKO RD,46.350970000000004,-123.81263,GILBERT
243,194,31512 J PLACE,46.530373,-124.05393000000001,JENSEN
244,197,2307 SID SNYDER DRIVE,46.346303999999996,-124.043856,WILLIAMSON
245,200,20619 BIRCH PLACE,46.451237,-124.03911000000001,MONTGOMERY
246,201,27525 Q LN,46.501509999999996,-124.048355,HARVEY
247,203,24 MOORE ROAD,46.623695,-123.95061499999998,OLIVER
248,204,161 UPPER NASELLE ROAD,46.371340000000004,-123.75790400000001,HOWELL
249,205,514 MC KINLEY STREET,46.672287,-123.73936,DEAN
250,206,22416 S PLACE,46.464946399999995,-124.04646399999999,HANSON
251,207,14918 SANDRIDGE RD,46.409595,-124.02256000000001,WEBER
252,208,1043 HOWARD STREET,46.693512,-123.74662,GARRETT
253,209,1212 BELMONT ROAD,46.672073,-123.69144399999999,SIMS
254,211,1127 GODFREY ST,46.693996000000006,-123.74423999999999,BURTON
255,212,2601 250TH ST,46.482944,-124.039856,FULLER
256,214,29018 H STREET,46.512904999999996,-124.0567,SOTO
257,215,226 ASH ST,46.68363,-123.74933999999999,MCCOY
258,218,24516 Y LANE,46.47956,-124.04012,WELCH
259,219,23409 PACIFIC WAY,46.472145000000005,-124.05231,CHEN
260,220,2383 BLOOMHARDT ROAD,46.65842,-123.72598,SCHULTZ
261,221,110 SOUTH BEND PALIX ROAD,46.61254,-123.9067,WALTERS
262,222,1111 DURYEA STREET,46.68665,-123.72386999999999,REID
263,223,294 STATE ROUTE 105,46.681582,-123.76508000000001,FIELDS
264,224,31102 O PLACE,46.527640000000005,-124.049355,WALSH
265,225,901 344TH STREET,46.55108,-124.05492,LITTLE
266,227,202 EIGHTH STREET,46.684753,-123.72737,FOWLER
267,228,315 12TH STREET,46.685883000000004,-123.722946,BOWMAN
268,229,27411 X LN,46.50047,-124.0406,DAVIDSON
269,230,4014 L PL,46.331795,-124.05587,MAY
270,231,1425 RAYMOND SOUTH BEND RD,46.671276,-123.75143999999999,DAY
271,232,19409 K PLACE,46.443046,-124.056003,SCHNEIDER
272,234,21014 BIRCH PLACE,46.454765,-124.03726,NEWMAN
273,235,1801 201ST ST,46.447575,-124.048325,BREWER
274,236,23616 SANDRIDGE ROAD,46.472935,-124.02917,LUCAS
275,237,29318 S LANE,46.514668,-124.04576000000002,HOLLAND
276,238,10584 US HWY 101,46.7762,-123.74213,WONG
277,239,142 SOUTH FORK ROAD,46.633457,-123.65766,BANKS
278,240,2591 NORTH RIVER ROAD,46.775684000000005,-123.52073,SANTOS
279,241,4 VIKING WAY,46.624496,-123.65088,CURTIS
280,242,668 COLE AVE,46.677677,-123.685356,PEARSON
281,243,31704 G ST,46.53153,-124.05768,DELGADO
282,244,1217 GODFREY ST,46.694824,-123.74425,VALDEZ
283,245,2003 224TH PLACE,46.464459999999995,-124.04588999999999,PENA
284,246,1911 CALIFORNIA AVENUE S,46.339775,-124.05563000000001,RIOS
285,248,964 STATE ROUTE 4,46.675518,-123.76342,DOUGLAS
286,249,1428 232ND LN,46.47041,-124.05331399999999,SANDOVAL
287,251,1102 DIVISION AVE,46.671764,-123.71431000000001,BARRETT
288,252,1014 STATE ROUTE 4,46.365868,-123.77608000000001,HOPKINS
289,253,132 AIRPORT ROAD,46.687202,-123.78955,KELLER
290,254,35708 I ST,46.521107,-124.05504599999999,GUERRERO
291,255,22617 PACIFIC WAY,46.466053,-124.05255,STANLEY
292,256,22310 BIRCH PLACE,46.46393,-124.037224,BATES
293,257,612 CHERRY ST,46.6783,-123.72101599999999,ALVARADO
294,261,1105 195TH ST,46.44356,-124.05551100000001,BECK
295,263,1501 186TH LANE,46.436928,-124.05198999999999,ORTEGA
296,264,30205 M PLACE,46.520767,-124.05173500000001,WADE
297,265,1302 DURYEA STREET,46.68667,-123.72181,ESTRADA
298,266,28811 SANDRIDGE ROAD,46.511158,-124.029655,CONTRERAS
299,267,1140 DEAL STREET,46.673103000000005,-123.68416,BARNETT
300,269,618 BRADFORD STREET,46.678540000000005,-123.746826,CALDWELL
301,270,17708 SANDRIDGE ROAD,46.431534,-124.02214,SANTIAGO
302,271,1010 WILLAPA FIRST,46.673839,-123.668618,LAMBERT
303,274,17316 SANDRIDGE ROAD,46.427284,-124.0212,POWERS
304,275,214 FIR STREET,46.683147,-123.74843999999999,CHAMBERS
305,276,2705 277TH LN,46.50035,-124.0336,NUNEZ
306,278,19408 K PL,46.442593,-124.05568000000001,CRAIG
307,279,16 WILLIAMS CREEK ROAD,46.520226,-123.87723500000001,LEONARD
308,280,1915 208TH PL,46.45278,-124.047554,LOWE
309,282,14 AIRPORT ROAD,46.68307,-123.77798,RHODES
310,283,1110 WATER ST,46.69392,-123.73827,BYRD
311,284,1218 GODFREY STREET,46.69538,-123.74425500000001,GREGORY
312,285,569 BARNHART STREET,46.67915,-123.74205,SHELTON
313,287,71 ELK PRAIRIE ROAD,46.540077000000004,-123.52238999999999,FRAZIER
314,291,858 FOWLER STREET,46.675358,-123.73952,BECKER
315,292,920 CRESCENT STREET,46.691821999999995,-123.74538000000001,MALDONADO
316,293,501 SHOREVIEW DRIVE S #402,46.348079999999996,-124.05819,FLEMING
317,294,654 STATE RT 6,46.649143,-123.66891000000001,VEGA
318,295,1880 FOWLER ROAD,46.66382,-123.7319,SUTTON
319,296,1121 CEDAR ST,46.693977000000004,-123.74061999999999,COHEN
320,297,948 COLE AVENUE,46.6748,-123.687164,JENNINGS
321,298,20102 S ST,46.447722999999996,-124.0475,PARKS
322,299,24401 ELM PLACE,46.479195000000004,-124.03358,MCDANIEL
323,302,925 HOWARD STREET,46.692142,-123.74659,WATTS
324,303,24116 V LN,46.47745,-124.04348,BARKER
325,304,1125 SHERMAN AVENUE,46.684002,-123.74841,NORRIS
326,306,495 PARPALA RD,46.3955,-123.85047,VAUGHN
327,307,38 HYLAND STRINGER RD,46.5888,-123.63211000000001,VAZQUEZ
328,308,2818 228TH LANE,46.466965,-124.0376,HOLT
329,309,29307 O STREET,46.514365999999995,-124.04966999999999,SCHWARTZ
330,313,105 NORTH VALLEY ROAD,46.371998,-123.77158,STEELE
331,314,15410 SANDRIDGE RD,46.413067,-124.022224,BENSON
332,315,1907 321ST PLACE,46.53479,-124.04547,NEAL
333,316,1305 145TH PL,46.407379999999996,-124.05429,DOMINGUEZ
334,317,1213 HENKLE ST,46.681979999999996,-123.72996499999999,HORTON
335,318,121 ALEXANDER ROAD,46.65747,-123.65972,TERRY
336,319,790 STATE ROUTE 4,46.376186,-123.79993,WOLFE
337,323,49 OXBOW RD,46.58023,-123.63763,HALE
338,325,401 MONOHON LANDING ROAD,46.690857,-123.69254,LYONS
339,326,1409 295TH STREET,46.515846,-124.05051399999999,GRAVES
340,327,320 10TH STREET NE,46.3459223,-124.05271570000001,HAYNES
341,328,439 MONOHON LANDING ROAD,46.691241999999995,-123.68818999999999,MILES
342,329,527 MCKINLEY AVE,46.672287,-123.74016999999999,PARK
343,330,824 WYOMING ST,46.670475,-123.78448,WARNER
344,331,1367 STATE ROUTE 4,46.35447,-123.73683,PADILLA
345,332,1107 LAKE STREET,46.6727,-123.71686000000001,BUSH
346,333,28533 W LN,46.508829999999996,-124.041435,THORNTON
347,334,2783 STATE ROUTE 101,46.336317,-123.9747,MCCARTHY
348,336,32306 H PL,46.514294,-124.056725,MANN
349,337,635 BRADFORD ST,46.678554999999996,-123.745804,ZIMMERMAN
350,338,6801 ORTELIUS DRIVE,46.318591999999995,-124.008,ERICKSON
351,339,402 28TH STREET NW,46.37423,-124.05816999999999,FLETCHER
352,340,1320 LARCH STREET,46.69601,-123.73948,MCKINNEY
353,341,430 FIRST ST #209,46.687046,-123.73573,PAGE
354,342,800 TAFT AVENUE,46.671043,-123.74198,DAWSON
355,343,2007 41ST PL,46.332245,-124.047615,JOSEPH
356,345,22409 PACIFIC HIGHWAY,46.464515999999996,-124.05261999999999,MARQUEZ
357,346,1216 196TH ST,46.443978,-124.054001,REEVES
358,348,959 BARNHART STREET,46.67408,-123.742,KLEIN
359,349,1368 STATE ROUTE 401,46.319424,-123.80056,ESPINOZA
360,351,31304 O PLACE,46.528786,-124.049324,BALDWIN
361,352,3800 102ND ST,46.375415999999994,-124.02894599999999,MORAN
362,354,1112 GODFREY ST,46.693882,-123.74425,LOVE
363,355,3739 STATE RT 105,46.7398473,-124.07756709999998,ROBBINS
364,356,1308 FOWLER,46.669346000000004,-123.739728,HIGGINS
365,357,1808 OCEAN BCH BLVD S,46.340030799999994,-124.05639209999998,BALL
366,358,30 MEADOW LANE,46.740159999999996,-123.7341,CORTEZ
367,360,27508 V STREET,46.501472,-124.04271000000001,LE
368,361,1407 PARK AVENUE,46.6937,-123.74524,GRIFFITH
369,362,20303 PACIFIC WAY,46.4491919,-124.05316699999999,BOWEN
370,365,14408 BIRCH STREET,46.40602,-124.039024,SHARP
371,366,32105 I ST,46.534344,-124.05543,CUMMINGS
372,368,608 CHERRY STREET,46.678314,-123.72101599999999,RAMSEY
373,369,1404 GROVE AVENUE,46.69634,-123.74533000000001,HARDY
374,370,340 PARPALA ROAD,46.386234,-123.84281000000001,SWANSON
375,371,620 ELM STREET,46.67844,-123.74708600000001,BARBER
376,372,1036 BARNHART ST,46.67324,-123.74200400000001,ACOSTA
377,373,22607 SOUTH PLACE,46.4658964,-124.0466507,LUNA
378,376,508 OSTMAN ROAD,46.66867,-123.73931999999999,CHANDLER
379,377,6299 WILSON CREEK ROAD,46.679996,-123.64838400000001,BLAIR
380,379,2603 SEA CREST AVENUE N,46.371251,-124.054725,DANIEL
381,380,1013 DURYEA STREET,46.686638,-123.72476999999999,CROSS
382,381,1002 BARNHART,46.673607000000004,-123.74200400000001,SIMON
383,382,858 BALLENTINE,46.675327,-123.74078,DENNIS
384,383,307 MILL CREEK ROAD,46.647335,-123.64217,OCONNOR
385,384,1410 300TH PLACE,46.519787,-124.050476,QUINN
386,385,1112 STATE ROUTE 4,46.360534,-123.767122,GROSS
387,387,29007 N STREET,46.512524,-124.050804,NAVARRO
388,388,2620 245TH STREET,46.479275,-124.03924599999999,MOSS
389,390,2610 248TH PLACE,46.482002,-124.03868,FITZGERALD
390,391,41 RUE CREEK ROAD,46.621906,-123.64842,DOYLE
391,393,4119 142ND LN,46.40493,-124.02632,MCLAUGHLIN
392,394,2053 301ST LANE,46.52055,-124.0511,ROJAS
393,395,1204 311TH STREET,46.527466,-124.05273400000002,RODGERS
394,397,2605 NORTH RIVER RD,46.77565,-123.51925,STEVENSON
395,398,1612 208TH PLACE,46.4528,-124.05053000000001,SINGH
396,400,745 BARNHART ST,46.676759999999994,-123.74203500000002,YANG
397,402,1410 48TH PLACE UNIT A-1,46.336994,-124.052021,FIGUEROA
398,403,3311 ROMANE RD,46.669224,-123.69421000000001,HARMON
399,404,20101 U LN,46.447716,-124.0452,NEWTON
400,405,697 WARD CREEK ROAD,46.72783,-123.641975,PAUL
401,406,2827 231ST LANE,46.468920000000004,-124.03748,MANNING
402,407,1635 LARSON ROAD,46.667606,-123.69131000000002,GARNER
403,408,1604 198TH PLACE,46.44582,-124.04947,MCGEE
404,410,23829 ISLE PLACE,46.474632,-124.02988400000001,REESE
405,412,1030 WILLAPA RD,46.673615000000005,-123.66936000000001,FRANCIS
406,413,25020 SANDRIDGE RD,46.48321,-124.03416000000001,BURGESS
407,414,209 12TH STREET,46.684837,-123.72294,ADKINS
408,415,631 STATE ROUTE 6,46.650143,-123.67285,GOODMAN
409,416,30909 SANDRIDGE RD,46.525909999999996,-124.03075,CURRY
410,417,16710 PACIFIC WAY,46.36676,-124.05373999999999,BRADY
411,418,482 RUE CREEK RD,46.618997,-123.68096200000001,CHRISTENSEN
412,419,211 13TH STREET,46.68486,-123.72188,POTTER
413,420,1172 STATE ROUTE 4,46.356705,-123.75896999999999,WALTON
414,421,1305 PARK AVE,46.693684000000005,-123.74649,GOODWIN
415,422,2740 HEATHER RD,46.77491,-124.07765,MULLINS
416,423,21 HURT RD,46.562915999999994,-123.62114,MOLINA
417,424,12912 N ALLEY,46.395485,-124.0536,WEBSTER
418,426,611 LINCOLN,46.678593,-123.74101999999999,FISCHER
419,428,721 WILLAPA AVE,46.661219,-123.821025,CAMPOS
420,430,1904 222ND PLACE,46.463013000000004,-124.0462,AVILA
421,431,23904 L LANE,46.47591,-124.05405400000001,SHERMAN
422,432,791 DEARBORN ST,46.676956,-123.76154,TODD
423,433,309 9TH STREET SE,46.3465583,-124.05263459999999,CHANG
424,434,1211 WILLAPA ST,46.69477,-123.741844,BLAKE
425,435,49 N NEMAH RD E,46.520332,-123.8803,MALONE
426,436,2005 WILLIAMS ST,46.67695,-123.71063000000001,WOLF
427,437,1601 WASHINGTON AVENUE N,46.362815999999995,-124.05118600000002,HODGES
428,438,1122 HOWARD STREET,46.693863,-123.74723999999999,JUAREZ
429,439,955 STATE ROUTE 4,46.369886,-123.78125,GILL
430,440,30408 J PL,46.52259,-124.05433000000001,FARMER
431,442,1345 BELMONT RD,46.67202,-123.69142,HINES
432,443,1504 PARK AVENUE,46.6937,-123.7441,GALLAGHER
433,444,23 PARPALA ROAD,46.366479999999996,-123.814575,DURAN
434,447,1603 WASHINGTON AVENUE N,46.362835,-124.05118600000002,HUBBARD
435,448,1143 CEDAR STREET,46.694168,-123.74061999999999,CANNON
436,450,142 UPPER NASELLE ROAD,46.370876,-123.76069,MIRANDA
437,451,29206 O STREET,46.513542,-124.049675,WANG
438,453,1706 STATE ROUTE 101,46.313673,-124.02521399999999,SAUNDERS
439,454,820 WILLAPA AVENUE,46.660365000000006,-123.824846,TATE
440,456,32210 N PLACE,46.535812,-124.05001399999999,MACK
441,457,29001 H STREET,46.5132,-124.056725,HAMMOND
442,458,564 ELM ST,46.67877,-123.74708999999999,CARRILLO
443,459,699 STATE ROUTE 4,46.378859999999996,-123.81048,TOWNSEND
444,460,27702 O PLACE,46.503384000000004,-124.05001000000001,WISE
445,462,9800 ELM PLACE,46.37308,-124.03621499999998,INGRAM
446,464,471 SOUTH FORK ROAD,46.656696000000004,-123.7239,BARTON
447,465,39 RUE CREEK RD,46.621709,-123.65059099999999,MEJIA
448,466,32 SWARTZ LANE,46.663948,-123.76996000000001,AYALA
449,467,422 FRANKLIN ST,46.68884,-123.73222,SCHROEDER
450,468,727 MC KINLEY AVENUE,46.672557399999995,-123.7428446,HAMPTON
451,469,1608 WASHINGTON AVENUE SOUTH,46.341553000000005,-124.05353500000001,ROWE
452,471,829 CROSSING STREET,46.677,-123.7034,PARSONS
453,472,275 SOUTH VALLEY ROAD,46.364517,-123.78226000000001,FRANK
454,476,3267 SMITH ANDERSON ROAD,46.75506,-124.066635,WATERS
455,477,26612 RIDGE AVENUE,46.495224,-124.04883999999998,STRICKLAND
456,478,3437 DOUGLAS STREET,46.7493,-124.08537,OSBORNE
457,479,750 BALLENTINE STREET,46.676697,-123.74078999999999,MAXWELL
458,480,2153 BUSH AVENUE,46.695114000000004,-123.73557,CHAN
459,481,33705 J PL,46.54562,-124.05418,DELEON
460,483,820 MAY STREET,46.67566,-123.73828,NORMAN
461,484,266 JOE ROCKEY ROAD,46.662834000000004,-123.731834,HARRINGTON
462,485,2000 201ST STREET,46.447678,-124.045425,CASEY
463,486,29514 K PL,46.516040000000004,-124.05353999999998,PATTON
464,487,3035 OLDANI ROAD,46.668446,-123.69633999999999,LOGAN
465,488,1070 PROSPECT,46.671535,-123.78316000000001,BOWERS
466,490,3435 WILLAPA ROAD,46.672965999999995,-123.6918,MUELLER
467,491,258 STATE ROUTE 105,46.684011,-123.761628,GLOVER
468,494,3202 318TH STREET,46.534164000000004,-124.03187,FLOYD
469,496,1235 FOWLER ROAD,46.66956,-123.739395,HARTMAN
470,497,28409 U STREET,46.507903999999996,-124.04378500000001,BUCHANAN
471,502,20215 P PLACE,46.448166,-124.05001999999999,COBB
472,503,801 DURYEA ST,46.686615,-123.727295,FRENCH
473,504,21609 SANDRIDGE ROAD,46.458286,-124.02962,KRAMER
474,508,20217 P PL,46.448177,-124.05001999999999,MCCORMICK
475,509,31207 G STREET,46.528275,-124.05755,CLARKE
476,510,263 RAYMOND SOUTH BEND RD,46.666243,-123.76876200000001,TYLER
477,512,27011 VERNON AVENUE,46.498074,-124.04978999999999,GIBBS
478,513,1206 320TH PLACE,46.53414,-124.05053000000001,MOODY
479,514,311 11TH STREET,46.685833,-123.72401,CONNER
480,515,27895 Y PLACE,46.503487,-124.039375,SPARKS
481,516,1293 DOLAN STREET,46.671074,-123.679245,MCGUIRE
482,517,335 MILL CREEK RD,46.647327000000004,-123.64216,LEON
483,519,274 NORTH VALLEY RD,46.373707,-123.76026,BAUER
484,520,33704 J PLACE,46.54562,-124.05416000000001,NORTON
485,521,832 FOWLER STREET,46.675644,-123.73952,POPE
486,522,431 STRINGTOWN ROAD,46.321594,-124.00928,FLYNN
487,523,622 HEATH STREET,46.68335,-123.7292,HOGAN
488,527,17820 PACIFIC WAY,46.366787,-124.05373999999999,ROBLES
489,528,1119 DURYEA ST,46.68665,-123.72379,SALINAS
490,529,17 GOLDAU ROAD,46.587757,-123.62177,YATES
491,530,1100 322ND ST,46.535313,-124.05423,LINDSEY
492,531,3119 SANDRIDGE RD,46.325356,-124.04746000000002,LLOYD
493,532,33408 J PL,46.543704999999996,-124.0542,MARSH
494,534,8005 SANDRIDGE RD,46.360344,-124.02886000000001,MCBRIDE
495,536,621 OSTMAN RD,46.6687,-123.741455,OWEN
496,538,26215 SANDRIDGE ROAD,46.4922,-124.03373,SOLIS
497,540,2725 234TH LANE,46.471000000000004,-124.03789499999999,PHAM
498,542,3616 102ND PLACE,46.37542,-124.03048999999999,LANG
499,545,449 SOUTH FORK RD,46.62978,-123.70293999999998,PRATT
500,546,161 LILLY WHEATON ROAD,46.624584000000006,-123.63259,LARA
501,547,52 NASELLE ROAD,46.37455,-123.80263500000001,BROCK
502,548,70 CAMP ONE RD,46.647617,-123.65463000000001,BALLARD
503,549,3553 LOUDERBACK ROAD,46.675312,-123.69001000000002,TRUJILLO
504,550,119 ELK CREEK ROAD,46.710255,-123.71418999999999,SHAFFER
505,551,1135 WATER STREET,46.69412,-123.73826000000001,DRAKE
506,555,2201 300TH PL,46.519554,-124.042305,ROMAN
507,557,661 COLE AVENUE,46.677937,-123.68534,AGUIRRE
508,560,1707 HECKARD ROAD,46.666725,-123.6777,MORTON
509,562,11 ECKY LANE,46.365746,-123.78617,STOKES
510,563,806 WASHINGTON AVE S,46.34652,-124.052704,LAMB
511,564,16 HUNGRY HARBOR LANE,46.263153,-123.84551,PACHECO
512,566,93 ALEXANDER ROAD,46.658295,-123.66131000000001,PATRICK
513,568,266 STRINGTOWN ROAD,46.312702,-123.99578000000001,COCHRAN
514,571,2304 265TH PL,46.494209999999995,-124.04166399999998,SHEPHERD
515,572,4209 STRATTON ROAD,46.671513,-123.68151999999999,CAIN
516,573,289 N NEMAH RD,46.511765000000004,-123.85395,BURNETT
517,574,136 WILSON LANE,46.639034,-123.934395,HESS
518,578,1203 PARK AVENUE,46.69339,-123.74775,LI
519,579,2051 BLOOMHARDT RD,46.6666191,-123.7189283,CERVANTES
520,580,1670 STATE ROUTE 6,46.677498,-123.716774,OLSEN
521,581,1212 266TH PL,46.495148,-124.05248999999999,BRIGGS
522,582,1313 280TH PL,46.505207,-124.05264,OCHOA
523,583,97 HYLAND STRINGER RD,46.586918,-123.64256,CABRERA
524,584,1829 198TH PL,46.446014,-124.04683100000001,VELASQUEZ
525,585,3804 BURKHALTER ROAD,46.67205,-123.68558,MONTOYA
526,586,1242 MILL STREET,46.695071999999996,-123.73711000000002,ROTH
527,588,835 BALLENTINE STREET,46.67559,-123.74077,MEYERS
528,589,952 BRADFORD STREET,46.67405,-123.745804,CARDENAS
529,592,720 WASHINGTON AVENUE,46.67731,-123.742355,FUENTES
530,593,6810 V PLACE,46.351997,-124.044395,WEISS
531,594,2 NASELLE ROAD,46.371677000000005,-123.8052,HOOVER
532,596,2906 217TH STREET,46.45876,-124.03726,WILKINS
533,597,20718 CRANE PLACE,46.452137,-124.0364,NICHOLSON
534,599,20211 CRANE PLACE,46.448475,-124.03771,UNDERWOOD
535,602,2610 240TH PLACE,46.476143,-124.03875,SHORT
536,603,1010 CROSSING ST,46.674865999999994,-123.70374,CARSON
537,608,46 FAIRLEY STREET,46.56416,-123.55430600000001,MORROW
538,610,1704 200TH LANE,46.44703,-124.048294,COLON
539,611,1060 FOWLER STREET,46.672886,-123.73936499999999,HOLLOWAY
540,612,35708 G STREET,46.5606,-124.05918,SUMMERS
541,613,3204 113TH LANE,46.383907,-124.03442,BRYAN
542,614,20401 BIRCH LN,46.44874,-124.03903000000001,PETERSEN
543,615,1809 245TH STREET,46.479534,-124.04718999999999,MCKENZIE
544,616,2320 DODGE ST,46.563316,-123.55465,SERRANO
545,617,1901 196TH ST,46.44373,-124.04862,WILCOX
546,618,29306 O STREET,46.514053000000004,-124.04966,CAREY
547,619,3303 SIENKO ROAD,46.666740000000004,-123.693825,CLAYTON
548,620,2015 226TH PL,46.465866,-124.04579,POOLE
549,621,2702 SEA CREST AVENUE,46.372307899999996,-124.054142,CALDERON
550,622,1878 STATE ROUTE 6,46.556463,-123.61058999999999,GALLEGOS
551,627,269 ELK CREEK ROAD,46.716133,-123.708381,GREER
552,629,840 WILLAPA FIRST ST,46.675808,-123.6684,RIVAS
553,630,810 340TH PL,46.548695,-124.05628999999999,GUERRA
554,633,3244 SIENKO RD,46.666767,-123.6938,DECKER
555,636,105 19TH STREET NE,46.366162700000004,-124.0531962,COLLIER
556,637,1824 198TH PL,46.445827,-124.04726000000001,WALL
557,639,1119 GODFREY ST,46.69393,-123.74423999999999,WHITAKER
558,641,930 DIVISION STREET,46.6747398,-123.7143611,BASS
559,642,15 BEZEMER ROAD,46.691383,-123.68608,FLOWERS
560,643,29612 K PLACE,46.51681,-124.05353500000001,DAVENPORT
561,644,71 RUE CREEK ROAD,46.621914000000004,-123.6496,CONLEY
562,645,902 324TH PL,46.53709,-124.05601499999999,HOUSTON
563,649,584 ASH STREET,46.6786643,-123.7498384,HUFF
564,652,1051 SUMMIT AVENUE,46.672053999999996,-123.78399999999999,COPELAND
565,653,24506 P STREET,46.47972,-124.04996499999999,HOOD
566,654,201 NE 23RD ST,46.368877000000005,-124.05221599999999,MONROE
567,655,1500 300TH PLACE,46.51999,-124.05006399999999,MASSEY
568,656,4807 SANDRIDGE RD,46.33723,-124.04308999999999,ROBERSON
569,657,756 WILLAPA FOURTH STREET,46.67882,-123.66526,COMBS
570,659,24004 GILE LANE,46.47654,-124.03065500000001,FRANCO
571,661,1507 300TH PL,46.520027,-124.04988999999999,LARSEN
572,664,817 STATE ROUTE 4,46.376816,-123.79581,PITTMAN
573,666,774 SALMON CREEK RD,46.388011999999996,-123.68361999999999,RANDALL
574,667,229 8TH STREET,46.68497,-123.727356,SKINNER
575,668,711 WARD CREEK ROAD,46.728615000000005,-123.64175,WILKINSON
576,669,6819 ORETELIUS DRIVE,46.318816999999996,-124.00776,KIRBY
577,670,13201 PACIFIC WAY,46.397040000000004,-124.05297,CAMERON
578,672,803 FOWLER ROAD,46.675971999999994,-123.7395,BRIDGES
579,674,550 FOWLER ST,46.679306,-123.73955500000001,ANTHONY
580,675,3721 PACIFIC WAY,46.329693,-124.05497,RICHARD
581,676,1515 177TH STREET,46.43015,-124.05234499999999,KIRK
582,677,30016 U PLACE,46.519753,-124.04308999999999,BRUCE
583,678,951 STATE ROUTE 4,46.370246,-123.78159199999999,SINGLETON
584,679,3801 WILLAPA ROAD,46.672585,-123.686874,MATHIS
585,680,8 HYLAND-STRINGER ROAD,46.585682,-123.63195,BRADFORD
586,682,3490 UDD ROAD,46.67252,-123.69221499999999,BOONE
587,685,130 NORTH VALLEY RD,46.37198,-123.77028,ABBOTT
588,687,32202 DOUGLAS DR,46.535915,-124.03306599999999,CHARLES
589,690,1029 WILLAPA ROAD,46.67355,-123.669334,ALLISON
590,691,28611 SANDRIDGE ROAD,46.50863,-124.03265,SWEENEY
591,693,1501 LARCH ST,46.698586,-123.73952,ATKINSON
592,695,27212 PARK AVE,46.500076,-124.05259,HORN
593,696,31007 SANDRIDGE RD,46.526478000000004,-124.03074,JEFFERSON
594,699,14214 BIRCH STREET,46.404957,-124.039024,ROSALES
595,701,17010 SANDRIDGE ROAD,46.42468,-124.02102,YORK
596,703,1030 WILLAPA ROAD,46.673615000000005,-123.66936000000001,CHRISTIAN
597,706,1401 120TH PLACE,46.388935,-124.05446,PHELPS
598,709,33304 J PL,46.543076,-124.05421000000001,FARRELL
599,710,6810 V PL,46.351997,-124.044395,CASTANEDA
600,712,1404 FOWLER ROAD,46.668606,-123.73868999999999,NASH
601,713,6808 ORTELIUS DRIVE,46.318687,-124.00788999999999,DICKERSON
602,715,2311 HARVARD STREET,46.675568,-123.70691000000001,BOND
603,716,844 BALLENTINE STREET,46.67548,-123.74078,WYATT
604,717,590 RUE CREEK ROAD,46.624084,-123.68416,FOLEY
605,719,743 ELM STREET,46.676712,-123.74705,CHASE
606,721,7 MONOHON LANDING ROAD,46.693913,-123.73476000000001,GATES
607,724,505 11TH STREET,46.688,-123.72403999999999,VINCENT
608,725,322 13TH STREET,46.685959999999994,-123.72188999999999,MATHEWS
609,726,2615 357TH LANE,46.560802,-124.0357,HODGE
610,728,9003 SANDRIDGE ROAD,46.367542,-124.02756000000001,GARRISON
611,729,584 ELM STREET,46.678665,-123.74708600000001,TREVINO
612,731,1801 OYSTERVILLE ROAD,46.548134000000005,-124.05102,VILLARREAL
613,732,504 12TH ST,46.687996000000005,-123.72298400000001,HEATH
614,733,710 FOWLER STREET,46.677116,-123.739525,DALTON
615,735,29716 H STREET,46.5182,-124.056177,VALENCIA
616,737,28707 SANDRIDGE ROAD,46.50972,-124.031364,CALLAHAN
617,740,24621 BIRCH PLACE,46.480391999999995,-124.03725,HENSLEY
618,743,30016 M PLACE,46.519890000000004,-124.05174,ATKINS
619,744,29920 W PL,46.519108,-124.04156499999999,HUFFMAN
620,749,841 CROSSING ST,46.676792,-123.7034,ROY
621,751,656 ELM STREET,46.677937,-123.74708000000001,BOYER
622,752,1104 WILLAPA STREET,46.69384,-123.74185,SHIELDS
623,756,2257 BUSH AVENUE,46.695374,-123.73409,LIN
624,758,889 CHINOOK VALLEY RD,46.322604999999996,-123.99286000000001,HANCOCK
625,759,319 SID SNYDER DRIVE,46.345886,-124.05103999999999,GRIMES
626,760,2720 212TH PLACE,46.4547,-124.03871000000001,GLENN
627,762,31308 J PL,46.528877,-124.05396,CLINE
628,763,20716 CRANE PLACE,46.452133,-124.0364,DELACRUZ
629,764,1304 145TH PL,46.407345,-124.053215,CAMACHO
630,765,2708 SEA CREST AVENUE,46.372842999999996,-124.05411799999999,DILLON
631,767,2392 BLOOMHARDT RD,46.658287,-123.72606999999999,PARRISH
632,768,33609 I STREET,46.54553,-124.055435,ONEILL
633,769,385 MONOHON LANDING ROAD,46.690704,-123.69438000000001,MELTON
634,770,1510 208TH PLACE,46.452824,-124.05154399999999,BOOTH
635,775,29715 K STREET,46.518757,-124.05408,KANE
636,776,6900 SANDRIDGE ROAD,46.352757000000004,-124.03116999999999,BERG
637,777,1143 WILLAPA ST,46.69416,-123.74184,HARRELL
638,780,22701 U ST,46.466637,-124.04496,PITTS
639,783,14 KASANDRA LANE,46.371784000000005,-123.76868,SAVAGE
640,784,1607 HARVARD,46.67537,-123.71678999999999,WIGGINS
641,787,30715 G STREET,46.525112,-124.05742,BRENNAN
642,788,1357 GRUHN ROAD,46.669674,-123.694496,SALAS
643,791,31006 O PLACE,46.526894,-124.04937,MARKS
644,793,32811 J PLACE,46.54009,-124.05426000000001,RUSSO
645,795,811 DURYEA STREET,46.686615,-123.72719,SAWYER
646,799,9 RHODESIA BEACH,46.613161,-123.9545,BAXTER
647,800,2827 233RD LANE,46.47033,-124.03743,GOLDEN
648,801,2718 232ND LN,46.47007,-124.04368999999998,HUTCHINSON
649,802,26109 Z STREET,46.490590000000005,-124.03906,LIU
650,803,853 STATE RT 101,46.280334,-123.951272,WALTER
651,804,1192 STATE ROUTE 4,46.354911,-123.759188,MCDOWELL
652,805,29310 R STREET,46.514168,-124.04683999999999,WILEY
653,806,202 16TH ST S,46.34197,-124.05573000000001,RICH
654,808,818 WYOMING STREET,46.670475,-123.78458,HUMPHREY
655,811,237 14TH STREET,46.68535,-123.72081999999999,JOHNS
656,812,45 NEMAH VALLEY ROAD,46.51367,-123.85873000000001,KOCH
657,814,23819 HOPE PLACE,46.474540000000005,-124.03081,SUAREZ
658,816,15507 BIRCH STREET,46.414246,-124.03901,HOBBS
659,823,1335 MORRIS AVE,46.678562,-123.72056599999999,BEARD
660,824,123 TRAP CREEK LANE,46.547203,-123.61613999999999,GILMORE
661,825,2115 282ND LN,46.50669,-124.04356000000001,IBARRA
662,826,305 14TH STREET,46.685623,-123.72083,KEITH
663,827,1801 249TH PLACE,46.48284,-124.048325,MACIAS
664,831,514 MONOHON LANDING ROAD,46.687588,-123.68028000000001,KHAN
665,832,140 KNAPPTON ROAD,46.350296,-123.81291999999999,ANDRADE
666,833,2713 344TH LANE,46.55106,-124.03745,WARE
667,836,24718 P STREET,46.481445,-124.0499,STEPHENSON
668,840,5 TORPPA ROAD,46.37403,-123.80231,HENSON
669,842,311 PIONEER ROAD EAST,46.367542,-124.05044,WILKERSON
670,846,5710 WILSON CREEK ROAD,46.67757,-123.66305,DYER
671,848,17901 MILL LANE,46.431942,-124.027176,MCCLURE
672,849,243 CAMP ONE ROAD,46.656994,-123.6681,BLACKWELL
673,851,218 STATE ROUTE 6,46.675404,-123.70463000000001,MERCADO
674,854,3715 LIGNOSKI ROAD,46.65563,-123.685875,TANNER
675,855,1120 LUDINGTON AVENUE,46.673846999999995,-123.68895,EATON
676,856,10612 US HIGHWAY 101,46.783863000000004,-123.74095,CLAY
677,857,1092 STATE ROUTE 4,46.3625471,-123.76788619999999,BARRON
678,858,3409 224TH PL,46.464356,-124.030919,BEASLEY
679,859,1817 224TH PLACE,46.464465999999994,-124.047195,ONEAL
680,863,318 12TH STREET,46.685916999999996,-123.72296000000001,PRESTON
681,864,1808 PARK AVENUE,46.693726,-123.74045600000001,SMALL
682,865,1450 ARMSTRONG ROAD,46.669193,-123.678474,WU
683,869,5501 CENTRAL STREET,46.673084,-123.66488999999999,ZAMORA
684,871,1487 ANDERSON LANE,46.697067,-123.73888400000001,MACDONALD
685,873,991 LUDINGTON AVE,46.6749321,-123.68894159999999,VANCE
686,875,28602 X LANE,46.510146999999996,-124.040306,SNOW
687,876,321 12TH STREET,46.685932,-123.722946,MCCLAIN
688,877,15003 BIRCH ST,46.41018,-124.03916000000001,STAFFORD
689,878,2562 EVERGREEN PARK ROAD,46.780666,-124.07896399999998,OROZCO
690,879,722 WILLAPA AVENUE,46.660343,-123.820823,BARRY
691,885,501 ELK PRAIRIE ROAD,46.538044,-123.478075,ENGLISH
692,886,2705 233RD LANE,46.470352,-124.038376,SHANNON
693,888,5533 SCHOOL ST,46.6764,-123.66498600000001,KLINE
694,891,811 352ND PLACE,46.556965000000005,-124.05872,JACOBSON
695,893,27813 L PLACE,46.50372,-124.05293999999999,WOODARD
696,895,1275 UDELL-HANSEN ROAD,46.764965000000004,-124.07343,HUANG
697,898,24208 SANDRIDGE ROAD,46.477276,-124.03046,KEMP
698,904,2034 HARVARD STREET,46.675465,-123.71030400000001,MOSLEY
699,907,30808 G STREET,46.525585,-124.05743000000001,PRINCE
700,908,5471 SCHOOL STREET,46.676407,-123.66571,MERRITT
701,911,7010 CAPT GRAY DR,46.31698,-124.00448999999999,HURST
702,913,3302 ROMANE RD,46.669193,-123.69435,VILLANUEVA
703,914,34900 STACKPOLE RD,46.570583,-124.034195,ROACH
704,916,1210 DURYEA STREET,46.686665000000005,-123.72278600000001,NOLAN
705,920,32307 I ST,46.536224,-124.05546000000001,LAM
706,926,1435 LARCH ST,46.697796000000004,-123.739494,YODER
707,930,1800 FOWLER ROAD,46.664444,-123.73208000000001,MCCULLOUGH
708,931,14405 BIRCH STREET,46.406006,-124.03903999999999,LESTER
709,932,5501 SCHOOL STREET,46.6764,-123.66521999999999,SANTANA
710,934,3303 102ND PLACE,46.375415999999994,-124.03216,VALENZUELA
711,935,2104 HENKLE STREET,46.678346999999995,-123.709158,WINTERS
712,938,9303 SANDRIDGE RD,46.369335,-124.02746599999999,BARRERA
713,939,2002 224TH PL,46.464447,-124.045876,LEACH
714,944,1302 324TH PLACE,46.537017999999996,-124.05128,ORR
715,946,416 WELSH STREET,46.67942,-123.738556,BERGER
716,949,950 STATE ROUTE 4,46.675613,-123.76342,MCKEE
717,950,109 23RD STREET NE,46.3689,-124.05327,STRONG
718,951,1148 PAULDING STREET,46.67257,-123.68292,CONWAY
719,953,5706 SCHOOL STREET,46.676384000000006,-123.66408999999999,STEIN
720,954,818 STATE ROUTE 4,46.37688,-123.795166,WHITEHEAD
721,955,31 WILSON LANE,46.637173,-123.92368,BULLOCK
722,959,2807 225TH PL,46.465379999999996,-124.03728500000001,ESCOBAR
723,960,28617 X LANE,46.50951,-124.04034399999999,KNOX
724,961,32 ELLIOTT ROAD,46.6645,-123.77365,MEADOWS
725,962,4 ROBERTSON RD,46.562927,-123.56064599999999,SOLOMON
726,963,860 PETERS STREET,46.675290000000004,-123.74456,VELEZ
727,965,1234 QUINCY STREET,46.67561,-123.781624,ODONNELL
728,967,456 RUE CREEK ROAD,46.617027,-123.68175,KERR
729,968,35415 G STREET,46.558983000000005,-124.0589,STOUT
730,970,24902 J PLACE,46.48227,-124.055466,BLANKENSHIP
731,971,1608 OREGON AVE N,46.3629,-124.05266599999999,BROWNING
732,972,2032 WILLIAMS STREET,46.67694,-123.71031,KENT
733,973,3585 LIGNOSKI ROAD,46.65563,-123.68597,LOZANO
734,974,18 LESHOWITZ LANE,46.369064,-123.76591499999999,BARTLETT
735,976,30911 L PL,46.526073,-124.05234499999999,PRUITT
736,979,35008 J PL,46.55734,-124.05385,BUCK
737,980,75 ELK CREEK ROAD,46.707390000000004,-123.7125,BARR
738,981,233 25TH ST NW,46.369871,-124.058889,GAINES
739,982,1103 WILLAPA AVENUE,46.660652,-123.83057,DURHAM
740,983,706 BRADFORD STREET,46.677063000000004,-123.74582,GENTRY
741,984,2723 NORTH RIVER ROAD,46.775276,-123.501976,MCINTYRE
742,986,1611 208TH PLACE,46.452812,-124.05055,SLOAN
743,990,702 BARNHART STREET,46.677215999999994,-123.74206000000001,MELENDEZ
744,991,55 GILES LN,46.693638,-123.85282,ROCHA
745,994,1624 STATE ROUTE 401,46.35353,-123.81551,HERMAN
746,995,1026 BALLENTINE STREET,46.67325,-123.74075,SEXTON
747,998,1470 ARMSTRONG ST,46.669647,-123.67981,MOON
748,999,942 FOWLER STREET,46.674155999999996,-123.7395,HENDRICKS
749,1000,3818 199TH COURT,46.445213,-124.02776000000001,RANGEL
750,1001,3304 238TH PLACE,46.47436,-124.030685,STARK
751,1003,20711 PACIFIC WAY,46.45348,-124.052536,LOWERY
752,1005,3007 247TH PLACE,46.481167,-124.03441000000001,HARDIN
753,1006,57 BUTZ RD,46.647746999999995,-123.64041999999999,HULL
754,1007,10006 SANDRIDGE ROAD,46.373965999999996,-124.02703999999999,SELLERS
755,1008,830 WILLAPA RD,46.67595,-123.669495,ELLISON
756,1009,2905 212TH LN,46.455585,-124.03728000000001,CALHOUN
757,1011,811 353RD PLACE,46.55807,-124.0562,GILLESPIE
758,1013,32702 G STREET,46.53867,-124.05808,MORA
759,1015,2109 RIDDELL STREET,46.69464,-123.736916,KNAPP
760,1020,2003 CRANBERRRY ROAD,46.39523,-124.04656000000001,MCCALL
761,1024,22415 V STREET,46.46451,-124.04433,MORSE
762,1028,1010 VIRGINIA,46.67198,-123.78013999999999,DORSEY
763,1029,1105 WILLAPA STREET,46.69384,-123.74184,WEEKS
764,1031,399 BUTTE CREEK ROAD,46.741714,-123.70988,NIELSEN
765,1032,813 BLAKE STREET,46.684670000000004,-123.72721000000001,LIVINGSTON
766,1034,434 TWELFTH ST,46.687542,-123.72298,LEBLANC
767,1035,25009 Z PLACE,46.48376,-124.03875,MCLEAN
768,1036,1504 323RD AVENUE,46.536297,-124.04977,BRADSHAW
769,1041,1219 LARCH STREET,46.694942,-123.73946000000001,GLASS
770,1042,4550 WILLAPA RD,46.670082,-123.67691,MIDDLETON
771,1045,111 RICHTER RD,46.62379,-123.65761,BUCKLEY
772,1047,1200 302ND ST,46.520676,-124.05228000000001,SCHAEFER
773,1050,2803 225TH PLACE,46.465379999999996,-124.0373,FROST
774,1053,1703 222ND PL,46.463097,-124.050224,HOWE
775,1056,3119 SANDRIDGE ROAD,46.325356,-124.04746000000002,HOUSE
776,1057,1720 STATE ROUTE 105,46.69372,-123.74153999999999,MCINTOSH
777,1063,88 ALEXANDER ROAD,46.658417,-123.66153,HO
778,1065,16105 SANDRIDGE RD,46.419777,-124.021515,PENNINGTON
779,1067,2604 SEACREST AVENUE NORTH,46.37128,-124.05443999999999,REILLY
780,1068,2211 272ND STREET,46.49892,-124.04263999999999,HEBERT
781,1069,6805 NEWT LANE,46.351288000000004,-124.0273,MCFARLAND
782,1072,5715 WILSON CREEK RD,46.67757,-123.66305,HICKMAN
783,1073,4204 SANDRIDGE RD,46.333378,-124.04401999999999,NOBLE
784,1075,1221 WILLAPA FIRST ST,46.671826,-123.667309,SPEARS
785,1077,697 MILL CREEK ROAD,46.622574,-123.58827,CONRAD
786,1078,23716 J PL,46.47486,-124.05519,ARIAS
787,1080,3515 224TH LANE,46.464345,-124.029826,GALVAN
788,1082,3201 ROMANE ROAD,46.669106,-123.69501000000001,VELAZQUEZ
789,1084,9801 ELM LN,46.37291,-124.03693999999999,HUYNH
790,1085,2489 STATE ROUTE 105,46.784063,-124.085424,FREDERICK
791,1087,1245 STATE RT 6,46.606629999999996,-123.63296000000001,RANDOLPH
792,1089,269 MILL CREEK ROAD,46.646172,-123.62077099999999,CANTU
793,1090,24530 V LN,46.479614,-124.04338999999999,FITZPATRICK
794,1093,2879 STATE ROUTE 6,46.541103,-123.4989,MAHONEY
795,1095,7500 US HWY 101,46.667282,-123.91885,PECK
796,1096,1071 STATE ROUTE 4 UNIT 342A,46.36394,-123.77006000000002,VILLA
797,1100,327 JOE ROCKY ROAD,46.662804,-123.732956,MICHAEL
798,1101,3019 STATE ROUTE 105,46.764977,-124.082924,DONOVAN
799,1103,27229 U STREET,46.499836,-124.044,MCCONNELL
800,1105,790 GARDEN STREET,46.677665999999995,-123.70548000000001,WALLS
801,1106,1220 LARCH ST,46.694958,-123.73948,BOYLE
802,1120,1501 179TH PLACE,46.431973,-124.05186499999999,MAYER
803,1121,1357 SALMON CREEK ROAD,46.4122,-123.66157,ZUNIGA
804,1126,7 HOLM LANE,46.396846999999994,-123.83623999999999,GILES
805,1134,2825 234TH LN,46.470978,-124.0368,PINEDA
806,1135,717 DURYEA ST,46.686609999999995,-123.7283,PACE
807,1142,29621 K ST,46.518642,-124.05408500000001,HURLEY
808,1143,12415 PACIFIC WAY,46.386573999999996,-124.05285,MAYS
809,1144,24727 P STREET,46.482079999999996,-124.04992,MCMILLAN
810,1146,5504 SANDRIDGE RD,46.34241,-124.04188,CROSBY
811,1149,727 WILLAPA SECOND STREET,46.676964,-123.66528000000001,AYERS
812,1150,2868 STATE ROUTE 6,46.540955,-123.49463999999999,CASE
813,1153,568 FOWLER ST,46.67907,-123.73955,BENTLEY
814,1156,24908 J PLACE,46.482292,-124.055466,SHEPARD
815,1158,556 MILL CREEK ROAD,46.629566,-123.59635,EVERETT
816,1160,757 WILLAPA RD,46.677057,-123.668925,PUGH
817,1166,10307 SANDRIDGE ROAD,46.376717,-124.02675,DAVID
818,1167,60 BURKE RD,46.77969,-123.4832,MCMAHON
819,1168,6610 SANDRIDGE ROAD,46.35033,-124.03326000000001,DUNLAP
820,1170,46 MARKLEY STREET,46.562459999999994,-123.55608000000001,BENDER
821,1172,945 BRADFORD ST,46.674126,-123.74578999999999,HAHN
822,1176,2005 WASHINGTON AVENUE N,46.3668,-124.050995,HARDING
823,1177,427 WEAVER AVENUE,46.669926000000004,-123.73817,ACEVEDO
824,1178,2003 FOWLER ROAD,46.661617,-123.73132,RAYMOND
825,1184,2104 KLAHANEE DRIVE SW,46.305077000000004,-124.05131499999999,BLACKBURN
826,1187,2880 OLDANI ROAD,46.668434000000005,-123.69668,DUFFY
827,1188,32110 K PLACE,46.536858,-124.05301999999999,LANDRY
828,1190,285 NORTH VALLEY ROAD,46.373535,-123.75663,DOUGHERTY
829,1194,1122 DURYEA ST,46.686640000000004,-123.72375500000001,BAUTISTA
830,1195,842 BARNHART,46.675323,-123.74203999999999,SHAH
831,1196,2100 285TH LANE,46.508507,-124.043724,POTTS
832,1197,27846 Y PL,46.50383,-124.039345,ARROYO
833,1198,28811 U ST,46.510661999999996,-124.0437,VALENTINE
834,1199,1414 194TH PL,46.4430635,-124.05204690000001,MEZA
835,1202,1615 WASHINGTON AVE N,46.36296,-124.05118,GOULD
836,1204,24618 BIRCH PL,46.479729999999996,-124.037094,VAUGHAN
837,1208,19405 K PLACE,46.442665000000005,-124.056009,FRY
838,1210,1208 218TH LANE,46.46008,-124.05407,RUSH
839,1211,2721 STATE RT 101,46.3311372,-124.027505,AVERY
840,1214,17 MAPLE LEAF STREET,46.626329999999996,-123.652054,HERRING
841,1221,1420 PORTOLA AVENUE,46.697334000000005,-123.74238999999999,DODSON
842,1225,15301 PACIFIC WAY,46.404415,-124.05243999999999,CLEMENTS
843,1226,32400 DOUGLAS DR,46.537186,-124.03290600000001,SAMPSON
844,1228,1540 ARMSTRONG ROAD,46.668655,-123.6784,TAPIA
845,1232,447 FIR,46.681576,-123.74838000000001,BEAN
846,1235,1303 MILL STREET,46.69525,-123.73709,LYNN
847,1238,1220 TOWER AVENUE,46.687492,-123.72272,CRANE
848,1241,5 NYBERG ROAD,46.346878000000004,-123.81273,FARLEY
849,1242,29411 T LANE,46.51489,-124.04472,CISNEROS
850,1247,1140 FOWLER STREET,46.67167,-123.73898,BENTON
851,1248,521 BALLENTINE ST,46.679756,-123.74081399999999,ASHLEY
852,1251,24703 DELL PLACE,46.481173999999996,-124.034966,MCKAY
853,1258,1915 195TH ST,46.443259999999995,-124.04733999999999,FINLEY
854,1262,1406 281ST PLACE,46.505882,-124.05075,BEST
855,1263,297 SMITH CREEK ROAD,46.74568,-123.71171000000001,BLEVINS
856,1265,33701 G ST,46.54636,-124.05851000000001,FRIEDMAN
857,1266,3105 318TH STREET,46.53417,-124.03222,MOSES
858,1268,239 25TH STREET NW,46.370149,-124.06093500000001,SOSA
859,1269,15 CAMP ONE ROAD,46.645885,-123.65983999999999,BLANCHARD
860,1271,306 11TH STREET,46.6858,-123.72402,HUBER
861,1272,120 NORTH VALLEY RD,46.371959999999994,-123.76886999999999,FRYE
862,1273,29519 G STREET,46.516290000000005,-124.05706,KRUEGER
863,1277,106 24TH STREET NE,46.369553,-124.05323999999999,BERNARD
864,1292,27812 M PLACE,46.503890000000006,-124.05173500000001,ROSARIO
865,1295,18000 SANDRIDGE ROAD,46.432865,-124.02246000000001,RUBIO
866,1296,315 CAMP ONE ROAD,46.65948,-123.66851000000001,MULLEN
867,1298,48 UPPER NASELLE RD,46.367596,-123.77096999999999,BENJAMIN
868,1299,1020 MUELLER ST,46.674263,-123.70788999999999,HALEY
869,1301,1015 227TH LN #150,46.467056,-124.05553400000001,CHUNG
870,1302,1112 WASHINGTON AVENUE N,46.360535,-124.05203999999999,MOYER
871,1303,5811 SANDRIDGE ROAD,46.34428,-124.04146000000001,CHOI
872,1307,26607 VERNON AVENUE,46.49537,-124.04988999999999,HORNE
873,1308,10157 US HWY 101,46.747894,-123.74946000000001,YU
874,1312,2541 EVERGREEN PARK ROAD,46.781693,-124.07907,WOODWARD
875,1317,1811 226TH PLACE,46.46587,-124.04713400000001,ALI
876,1319,1120 GODFREY ST,46.693946999999994,-123.74425500000001,NIXON
877,1321,28440 Z LANE,46.508266,-124.03865,HAYDEN
878,1322,625 WARD CREEK RD,46.72397,-123.64357,RIVERS
879,1324,1018 DURYEA STREET,46.686626000000004,-123.724724,ESTES
880,1327,525 JACKSON STREET,46.67607,-123.74021,MCCARTY
881,1330,1011 POPLAR LANE,46.67337,-123.74893999999999,RICHMOND
882,1334,609 336TH PL,46.545727,-124.05827,STUART
883,1338,1542 BLOOMHARDT RD,46.667538,-123.719086,MAYNARD
884,1341,936 VIRGINIA ST,46.67245,-123.78097,BRANDT
885,1343,23 BALE ROAD,46.683746,-123.77820600000001,OCONNELL
886,1347,1400 138TH STREET,46.4021859,-124.0540616,HANNA
887,1348,2312 WASHINGTON AVENUE N,46.369545,-124.05081000000001,SANFORD
888,1352,29522 N STREET,46.51614,-124.05066000000001,SHEPPARD
889,1354,333 JOE ROCKEY RD,46.662804,-123.7329,CHURCH
890,1356,814 CALIFORNIA ST,46.665894,-123.78471,BURCH
891,1366,845 OLIVE ST,46.675877,-123.70943500000001,LEVY
892,1367,1198 STATE ROUTE 4,46.355582,-123.758032,RASMUSSEN
893,1372,2507 66TH PLACE,46.35054,-124.042694,COFFEY
894,1373,1201 187TH PLACE,46.437756,-124.05447,PONCE
895,1376,27309 SANDRIDGE ROAD,46.499702,-124.03348000000001,FAULKNER
896,1377,20813 CRANE PLACE,46.45187,-124.03773000000001,DONALDSON
897,1380,2323 HECKARD ROAD,46.658745,-123.681,SCHMITT
898,1381,337 STATE ROUTE 105,46.682407,-123.77869399999999,NOVAK
899,1386,1603 PARK AVE,46.69372,-123.74295,COSTA
900,1387,31007 G STREET,46.526768,-124.05749499999999,MONTES
901,1396,588 WARD CREEK ROAD,46.727375,-123.64205,BOOKER
902,1397,20524 CRANE PLACE,46.45045,-124.03773500000001,CORDOVA
903,1398,31211 N PLACE,46.528632,-124.05086100000001,WALLER
904,1401,862 SMITH CREEK RD,46.751449,-123.650451,ARELLANO
905,1406,362 STATE ROUTE 6,46.66751,-123.69376000000001,MADDOX
906,1411,1507 OCEAN BEACH BLVD N,46.361095,-124.05475,MATA
907,1412,24211 GILE PLACE,46.477688,-124.031586,BONILLA
908,1413,160 NORTH NEMAH ROAD,46.515846,-123.87113000000001,STANTON
909,1416,4220 OLDANI ROAD,46.6697706,-123.68245790000002,COMPTON
910,1417,401 OCEAN BEACH BLVD N,46.35334,-124.055176,KAUFMAN
911,1418,703 BRADFORD ST,46.677105,-123.74581,DUDLEY
912,1419,44 FAIRLEY ST,46.56408,-123.55430600000001,MCPHERSON
913,1420,437 BAY CENTER ROAD,46.619709,-123.95361000000001,BELTRAN
914,1424,2597 NORTH RIVER ROAD,46.775665000000004,-123.520096,DICKSON
915,1430,30510 SANDRIDGE RD,46.522846,-124.03073,MCCANN
916,1433,1410 48TH PL #A-14,46.336994,-124.052021,VILLEGAS
917,1434,22306 BIRCH PLACE,46.463913,-124.037224,PROCTOR
918,1435,1788 NELSON ROAD,46.665054,-123.69505,HESTER
919,1440,802 COMMERCIAL STREET,46.685623,-123.72725,CANTRELL
920,1441,114 AIRPORT ROAD,46.686226,-123.78813999999998,DAUGHERTY
921,1442,429 3RD ST,46.68699,-123.733345,CHERRY
922,1444,1110 187TH PLACE,46.437744,-124.054405,BRAY
923,1448,5651 US HWY 101,46.513195,-123.88593,DAVILA
924,1450,645 BARNHART ST,46.678013,-123.74205,ROWLAND
925,1452,2405 BAY AVENUE,46.49156,-124.04101599999998,LEVINE
926,1453,13802 SANDRIDGE RD,46.402390000000004,-124.02328,MADDEN
927,1455,4304 166TH LN,46.421978,-124.02391000000001,SPENCE
928,1457,2504 242ND LANE,46.477505,-124.04,GOOD
929,1458,3508 102ND STREET,46.375427,-124.03216,IRWIN
930,1460,2714 217TH STREET,46.45884,-124.03789499999999,WERNER
931,1461,1386 PAULDING ST,46.67066,-123.68198000000001,KRAUSE
932,1466,1717 195TH ST,46.443275,-124.0496,PETTY
933,1472,828 MAY STREET,46.67553,-123.73828,WHITNEY
934,1474,29204 T LN,46.514156,-124.04473999999999,BAIRD
935,1481,33007 I STREET,46.540977000000005,-124.05554,HOOPER
936,1484,1212 FOWLER STREET,46.67068,-123.739174,POLLARD
937,1485,24204 ASH PL,46.477432,-124.03792,ZAVALA
938,1487,34808 G ST,46.555122,-124.05906999999999,JARVIS
939,1491,1404 167TH LN,46.422676,-124.05376399999999,HOLDEN
940,1495,3698 LARKIN RD,46.739909999999995,-124.07691000000001,HAAS
941,1498,108 QUINCY ST,46.663888,-123.787356,HENDRIX
942,1502,4 MARTIN LANE,46.61594,-123.64437,MCGRATH
943,1503,4404 SANDRIDGE RD,46.335058700000005,-124.04356440000001,BIRD
944,1508,12803 Y PLACE,46.395029799999996,-124.0416206,LUCERO
945,1515,602 BARNHART STREET,46.67846,-123.742065,TERRELL
946,1517,2327 SANDELL,46.674766999999996,-123.70583,RIGGS
947,1520,21006 BIRCH PL,46.454727,-124.03728500000001,JOYCE
948,1521,2300 285TH LANE,46.508472,-124.04033000000001,MERCER
949,1527,1230 FOWLER STREET,46.670612,-123.739204,ROLLINS
950,1530,1608 222ND PLACE,46.463093,-124.05063999999999,GALLOWAY
951,1532,3710 OLDANI ROAD,46.668490000000006,-123.68758999999999,DUKE
952,1539,2114 MICHIGAN AVENUE,46.676006,-123.7608,ODOM
953,1541,18901 SANDRIDGE ROAD,46.438763,-124.023766,ANDERSEN
954,1545,30700 M PL,46.52428,-124.051254,DOWNS
955,1546,2209 266TH PLACE,46.494842999999996,-124.04276000000002,HATFIELD
956,1547,34206 J PLACE,46.55024,-124.05436,BENITEZ
957,1548,166 SKEES ROAD,46.55211,-123.56907,ARCHER
958,1550,1121 CEDAR STREET,46.693977000000004,-123.74061999999999,HUERTA
959,1551,2133 BUSH AVENUE,46.695114000000004,-123.736046,TRAVIS
960,1552,27618 X LANE,46.502098,-124.04036,MCNEIL
961,1553,27701 O ST,46.503370000000004,-124.050026,HINTON
962,1567,2987 STATE RT 6,46.551624,-123.53151000000001,ZHANG
963,1568,17511 MILL LN,46.42848,-124.027176,HAYS
964,1572,927 CLAY AVENUE,46.67456,-123.7181,MAYO
965,1573,4340 WILLAPA ROAD,46.670128000000005,-123.680504,FRITZ
966,1579,363 SOUTH FORK ROAD,46.627693,-123.69299,BRANCH
967,1582,32203 I STREET,46.5354,-124.055435,MOONEY
968,1586,30501 K PL,46.523309999999995,-124.053444,EWING
969,1591,31714 G STREET,46.532635,-124.05773,RITTER
970,1598,2217 227TH PLACE,46.466507,-124.04442,ESPARZA
971,1602,1803 194TH ST,46.44246,-124.04803500000001,FREY
972,1603,26915 PARK AVENUE,46.497444,-124.05268000000001,BRAUN
973,1608,829 BALLENTINE ST,46.675655,-123.74077,GAY
974,1612,30810 M PL,46.525635,-124.05123999999999,RIDDLE
975,1614,942 BALLENTINE STREET,46.673936,-123.74111599999999,HANEY
976,1618,21107 PACIFIC WAY,46.455172999999995,-124.05297,KAISER
977,1619,1304 TOWER AVENUE,46.687504,-123.722176,HOLDER
978,1624,1509 229TH PLACE,46.468334000000006,-124.0522,CHANEY
979,1628,15407 SANDRIDGE ROAD,46.413326,-124.02221000000002,MCKNIGHT
980,1634,146 SOUTH VALLEY ROAD,46.367059999999995,-123.79816000000001,GAMBLE
981,1653,32301 Q STREET,46.536255,-124.04756,VANG
982,1655,20801 CRANE PLACE,46.45185,-124.03773500000001,COOLEY
983,1664,32101 G STREET,46.534687,-124.05788000000001,CARNEY
984,1665,33701 J PL,46.545605,-124.05418,COWAN
985,1668,718 ELM STREET,46.67696,-123.74706,FORBES
986,1671,57 ELK PRAIRIE ROAD,46.540417,-123.52241000000001,FERRELL
987,1673,711 TAFT AVENUE,46.67105,-123.7415,DAVIES
988,1674,3310 281ST STREET,46.50529,-124.03166999999999,BARAJAS
989,1678,910 FOWLER STREET,46.674503,-123.7395,SHEA
990,1681,21403 PACIFIC WAY,46.457077000000005,-124.05296000000001,OSBORN
991,1682,416 EIGHTH STREET,46.687034999999995,-123.7274,BRIGHT
992,1686,222 12TH STREET #2,46.684956,-123.72295,CUEVAS
993,1704,31309 M STREET,46.528408,-124.05165,BOLTON
994,1705,23412 BIRCH PL,46.470448,-124.03757,MURILLO
995,1706,8 APPELO LANE,46.36416,-123.77117,LUTZ
996,1711,727 JACKSON AVENUE,46.67608,-123.74242,DUARTE
997,1713,34810 STACKPOLE ROAD,46.56984,-124.03436,KIDD
998,1714,2811 219TH STREET,46.460453,-124.03713,KEY
999,1716,31211 L STREET,46.528126,-124.05285,COOKE
1000,1718,420 12TH STREET,46.687107,-123.72298,GOFF
1001,1720,24409 ELM PLACE,46.479504,-124.033676,DEJESUS
1002,1724,225 N VALLEY ROAD,46.37389,-123.76095600000001,MARIN
1003,1728,818 FIR STREET,46.68224,-123.748405,DOTSON
1004,1732,623 CHERRY STREET,46.678276000000004,-123.721,BONNER
1005,1735,758 MAY STREET,46.67651,-123.73828999999999,COTTON
1006,1737,32304 T PLACE,46.53604,-124.04398,MERRILL
1007,1741,32508 J PLACE,46.537865000000004,-124.0543,LINDSAY
1008,1751,56 NYBERG ROAD,46.346962,-123.810425,LANCASTER
1009,1759,2802 225TH PLACE,46.46537,-124.03728999999998,MCGOWAN
1010,1764,14 SUNSET RD,46.609266999999996,-123.9570114,FELIX
1011,1765,20703 BIRCH PL,46.451836,-124.03911000000001,SALGADO
1012,1768,6811 ORTELIUS DR,46.31872,-124.00787,SLATER
1013,1772,918 FOWLER ST,46.67442,-123.7395,CARVER
1014,1778,1704 208TH PLACE,46.45279,-124.04961999999999,GUTHRIE
1015,1787,231 14TH STREET,46.685326,-123.72081999999999,HOLMAN
1016,1788,1605 196TH LANE,46.44395,-124.05070500000001,FULTON
1017,1792,471 BAY CENTER ROAD,46.622234999999996,-123.953127,SNIDER
1018,1796,5739 WILSON CREEK ROAD,46.67757,-123.66305,SEARS
1019,1797,1319 LACKIE ROAD,46.668972,-123.68802,WITT
1020,1798,5409 SCHOOL ST,46.67641,-123.66626000000001,NEWELL
1021,1802,1405 OCEAN BEACH BLVD N,46.360797999999996,-124.05476999999999,BYERS
1022,1803,805 CALIFORNIA AVE,46.665896999999994,-123.78487,LEHMAN
1023,1804,28517 U STREET,46.508896,-124.04377,GORMAN
1024,1810,22002 BIRCH PL,46.46162,-124.03796399999999,COSTELLO
1025,1818,24604 GILES PL,46.4914875,-124.05016280000001,DONAHUE
1026,1819,301 STATE ROUTE 105,46.682457,-123.77894599999999,DELANEY
1027,1821,705 MAY STREET,46.676983,-123.73827,ALBERT
1028,1823,2906 219TH STREET,46.460438,-124.03686,WORKMAN
1029,1824,374 WEAVER AVENUE,46.66992,-123.73745,ROSAS
1030,1827,800 STATE ROUTE 4,46.37628,-123.79928600000001,SPRINGER
1031,1830,33406 G STREET,46.544033,-124.05837,JUSTICE
1032,1831,2768 STATE ROUTE 105,46.772870000000005,-124.08201000000001,KINNEY
1033,1835,131 HYLAND STRINGER ROAD,46.584340000000005,-123.65031,ODELL
1034,1838,2726 212TH PLACE,46.45474,-124.03867,LAKE
1035,1843,30817 STACKPOLE LANE,46.524753999999994,-124.03877,DONNELLY
1036,1844,1145 DEAL STREET,46.673065,-123.68413999999999,LAW
1037,1846,4004 MARSHALL ST,46.672447,-123.68303,DAILEY
1038,1847,1301 120TH PLACE,46.38893,-124.05511000000001,GUEVARA
1039,1849,2998 ALEXSON ROAD,46.765533000000005,-124.080505,SHOEMAKER
1040,1857,34801 J PLACE,46.55471,-124.05405400000001,BARLOW
1041,1858,24207 BIRCH PL,46.477486,-124.03691,MARINO
1042,1860,1507 WHEATON STREET,46.669483,-123.67584,WINTER
1043,1863,1030 STATE ROUTE 4,46.36558,-123.77512,CRAFT
1044,1864,3721 TAMERACK ST,46.73979,-124.0809,KATZ
1045,1883,2380 STATE ROUTE 6,46.67573,-123.70531499999998,PICKETT
1046,1887,2743 EMERSON AVE,46.542559999999995,-123.5046,ESPINOSA
1047,1905,12 BREEN ROAD,46.539367999999996,-123.47113999999999,DALY
1048,1907,32203 DOUGLAS DRIVE,46.53593,-124.03306599999999,MALONEY
1049,1911,53 STAUFFER ROAD,46.598316,-123.62409,GOLDSTEIN
1050,1912,31105 H STREET,46.527573,-124.05653999999998,CROWLEY
1051,1913,1405 303RD PLACE,46.52173,-124.05113,VOGEL
1052,1931,859 PETERS STREET,46.675312,-123.744545,KUHN
1053,1937,341 JOE ROCKY ROAD,46.662804,-123.73284,PEARCE
1054,1939,1234 SHERMAN AVE,46.68326,-123.74888,HARTLEY
1055,1949,17708 SANDRIDGE RD,46.431534,-124.02214,CLEVELAND
1056,1952,501 SHOREVIEW DR S APT 308,46.348079999999996,-124.05819,PALACIOS
1057,1958,7204 ORTELIUS DRIVE,46.31605,-124.00223500000001,MCFADDEN
1058,1962,208 SW 11TH ST,46.345487,-124.055982,BRITT
1059,1963,34810 G STREET,46.55515,-124.05906999999999,WOOTEN
1060,1971,2612 247TH PL,46.481094,-124.038475,CORTES
1061,1973,831 SEELEY STREET,46.675865,-123.74328,DILLARD
1062,1974,4401 166TH LN,46.422,-124.02271999999999,CHILDERS
1063,1985,1303 UDELL-HANSEN RD,46.76508,-124.07191999999999,ALFORD
1064,1988,2403 265TH PLACE,46.494213,-124.04123,DODD
1065,1992,29010 T LANE,46.51235,-124.044785,EMERSON
1066,1997,5404 SANDRIDGE ROAD,46.341377,-124.04213999999999,WILDER
1067,2003,524 LEE JOHNSON ROAD,46.667057,-123.737656,LANGE
1068,2014,27604 R LANE,46.502563,-124.04741999999999,GOLDBERG
1069,2018,1481 PACIFIC AVENUE,46.677727000000004,-123.71841,QUINTERO
1070,2022,81 MONOHON LANDING ROAD,46.695842999999996,-123.72729,BEACH
1071,2028,31109 G STREET,46.527714,-124.057526,ENRIQUEZ
1072,2029,1104 PAULDING STREET,46.672604,-123.68292,QUINTANA
1073,2032,615 OSTMAN ROAD,46.668694,-123.74134,HELMS
1074,2033,5206 SANDRIDGE ROAD,46.339946999999995,-124.04247,MACKEY
1075,2037,1556 STATE ROUTE 401,46.3432,-123.81393999999999,FINCH
1076,2043,33410 G STREET,46.544064,-124.05838,CRAMER
1077,2044,219 12TH STREET,46.68492,-123.72294,MINOR
1078,2052,844 SEELEY ST,46.6755,-123.74328999999999,FLANAGAN
1079,2055,2700 235TH LANE,46.47167,-124.03822,FRANKS
1080,2070,1305 198TH PL,46.445892,-124.05405400000001,CORONA
1081,2073,7115 SCARBORO LANE N,46.3191,-124.00344,KENDALL
1082,2084,1508 187TH PLACE,46.43773,-124.05205500000001,MCCABE
1083,2087,1253 QUINCY,46.67607,-123.78108,HENDRICKSON
1084,2090,1203 QUINAULT ST,46.6768177,-123.719811,MOSER
1085,2095,33107 J PLACE,46.541878000000004,-124.05425,MCDERMOTT
1086,2098,905 OCEAN BCH BLVD N,46.357475,-124.05496000000001,CAMP
1087,2117,9 KOVEN ROAD,46.367306,-123.81676000000002,MCLEOD
1088,2128,609 OSTMAN ROAD,46.668682000000004,-123.74123,BERNAL
1089,2145,1310 216TH LANE,46.458453999999996,-124.05498999999999,KAPLAN
1090,2147,29503 JOY LANE,46.515274,-124.02776999999999,MEDRANO
1091,2148,166 CAMP ONE ROAD,46.655159999999995,-123.66311,LUGO
1092,2154,15813 BIRCH STREET,46.417065,-124.038895,TRACY
1093,2155,1600 WASHINGTON AVENUE N,46.362815999999995,-124.05117,BACON
1094,2164,735 FOWLER STREET,46.676865,-123.73951000000001,CROWE
1095,2165,236 13TH STREET,46.68508,-123.72188999999999,RICHTER
1096,2169,933 SUMMIT,46.671307,-123.78488,WELSH
1097,2171,14904 BIRCH STREET,46.40981,-124.03916000000001,HOLLEY
1098,2173,1512 171ST PLACE,46.426006,-124.05259,RATLIFF
1099,2177,240 STRINGTOWN ROAD,46.319412,-124.00893,MAYFIELD
1100,2178,29 RICHTER ROAD,46.623020000000004,-123.65495,TALLEY
1101,2187,61 FRANCIS ROAD,46.543009999999995,-123.51811000000001,HAINES
1102,2189,34409 J PL,46.55145,-124.054,DALE
1103,2204,1730 FOWLER RD,46.665496999999995,-123.733574,GIBBONS
1104,2210,317 OXBOW ROAD,46.585255,-123.62645,HICKEY
1105,2213,2810 219TH ST,46.460440000000006,-124.03713,BYRNE
1106,2223,33433 DOUGLAS DRIVE,46.544006,-124.032776,KIRKLAND
1107,2224,140 28TH ST NW,46.373680799999995,-124.0556007,FARRIS
1108,2226,1400 104TH LANE,46.377903,-124.05382,CORREA
1109,2227,488 STATE ROUTE 6,46.657143,-123.68518999999999,TILLMAN
1110,2229,1321 STATE ROUTE 4,46.35475,-123.742424,SWEET
1111,2237,1033 QUINCY STREET,46.672707,-123.7849,KESSLER
1112,2239,15603 SANDRIDGE ROAD,46.41406,-124.02213,ENGLAND
1113,2250,1420 48TH PLACE UNIT #B-4,46.336424,-124.05167,HEWITT
1114,2266,1320 BLAKE STREET,46.68469,-123.72161000000001,BLANCO
1115,2267,6815 ORTELIUS DRIVE,46.318764,-124.00781,CONNOLLY
1116,2274,1135 LINDGREN ROAD,46.771384999999995,-124.0801,PATE
1117,2282,1211 LARCH ST,46.694874,-123.73946000000001,ELDER
1118,2289,7 KASANDRA LN,46.371834,-123.76866000000001,BRUNO
1119,2294,2704 240TH PLACE,46.47614,-124.03818500000001,HOLCOMB
1120,2299,29508 K ST,46.518513,-124.05408,HYDE
1121,2308,22408 SANDRIDGE RD,46.4641,-124.02943,MCALLISTER
1122,2315,31107 L ST,46.527664,-124.05283999999999,CASH
1123,2324,28909 V LN,46.51149,-124.04246499999999,CHRISTOPHER
1124,2329,13406 TEAL LANE,46.39895,-124.02028999999999,WHITFIELD
1125,2331,101 ELKHORN RD,46.778465000000004,-123.72841000000001,MEEKS
1126,2354,2 MOSHER LN,46.3709,-123.76153000000001,HATCHER
1127,2362,1102 SUMMIT AVENUE,46.6832,-123.74756000000001,FINK
1128,2364,4301 158TH LN,46.416214000000004,-124.02253999999999,SUTHERLAND
1129,2368,1172 STATE RT 4,46.35672,-123.76026100000001,NOEL
1130,2372,33200 J PL,46.542446000000005,-124.05421399999999,RITCHIE
1131,2380,31307 SANDRIDGE ROAD,46.52935,-124.03068999999999,ROSA
1132,2394,4201 TRESIZE ROAD,46.67935,-123.68292,LEAL
1133,2397,50 HINES VALLEY ROAD,46.686554,-123.780754,JOYNER
1134,2402,13406 N PLACE,46.399466700000005,-124.0530492,STARR
1135,2413,1514 198TH ST,46.445384999999995,-124.05208,MORIN
1136,2415,888 STATE RT 4,46.37357,-123.78805200000001,DELAROSA
1137,2421,29507 M PL,46.516040000000004,-124.05181,CONNOR
1138,2423,13807 BIRCH ST,46.401768,-124.03913,HILTON
1139,2428,10181 US HWY 101,46.742676,-123.746124,ALSTON
1140,2433,3204 113TH LN,46.383907,-124.03442,GILLIAM
1141,2435,3002 202ND PLACE,46.447865,-124.03626000000001,WYNN
1142,2443,107 NORTH VALLEY RD,46.371998,-123.77099,WILLS
1143,2454,36 OVERMEYER ROAD,46.696938,-123.70673000000001,JARAMILLO
1144,2460,850 MAY STREET,46.675167,-123.738266,ONEIL
1145,2462,31605 I ST #G,46.530857,-124.05542,NIEVES
1146,2470,1235 MILL STREET,46.695071999999996,-123.73709,BRITTON
1147,2475,267 OXBOW ROAD,46.5852,-123.63423999999999,RANKIN
1148,2476,13008 BIRCH ST,46.39663,-124.03924599999999,BELCHER
1149,2477,1337 LARCH STREET,46.696186,-123.739456,GUY
1150,2479,5240 SCHOOL ST,46.676407,-123.66797,CHAMBERLAIN
1151,2488,32 VIKING WAY,46.622646,-123.65093999999999,TYSON
1152,2491,20721 CRANE PLACE,46.45173,-124.03776,PUCKETT
1153,2492,27707 Q LANE,46.502182,-124.04838000000001,DOWNING
1154,2495,24608 SANDRIDGE RD,46.479683,-124.03238,SHARPE
1155,2498,10179 US HWY 101,46.742626,-123.746086,BOGGS
1156,2502,2745 EMERSON AVENUE,46.542545000000004,-123.50451000000001,TRUONG
1157,2505,112 28TH ST NW,46.373558,-124.05394,PIERSON
1158,2510,202 8TH STREET,46.684753,-123.72737,GODFREY
1159,2519,21211 PACIFIC WAY,46.455996999999996,-124.053024,MOBLEY
1160,2523,843 MUELLER ST,46.675940000000004,-123.70732,JOHN
1161,2527,940 COLE AVENUE,46.675117,-123.68784299999999,KERN
1162,2528,555 MUELLER STREET,46.677654,-123.707375,DYE
1163,2531,702 FOWLER STREET,46.6772,-123.73953,HOLLIS
1164,2534,2311 275TH LN,46.501278000000006,-124.042175,BRAVO
1165,2569,1830 PARK AVENUE,46.69373,-123.74023400000002,MAGANA
1166,2577,42 HOLTZ ROAD,46.612133,-123.90682,RUTHERFORD
1167,2578,3636 OLDANI ROAD,46.668479999999995,-123.68838000000001,NG
1168,2584,1613 PARK AVENUE,46.69372,-123.74283999999999,TUTTLE
1169,2586,3199 WILLAPA RD,46.672462,-123.69623600000001,LIM
1170,2589,109 HARRISON STREET,46.6633895,-123.78296840000002,ROMANO
1171,2601,10 WASHINGTON CEMETERY RD,46.69611,-123.72903000000001,ARTHUR
1172,2605,5501 SANDRIDGE ROAD,46.34239,-124.0419,TREJO
1173,2607,1035 BRADFORD STREET,46.673065,-123.74576599999999,KNOWLES
1174,2610,1234 WATER ST,46.694935,-123.73828999999999,LYON
1175,2612,915 OHIO AVENUE,46.671295,-123.78273999999999,SHIRLEY
1176,2623,1731 KRAUSE ROAD,46.66617,-123.69033,QUINONES
1177,2629,6205 V PL,46.34684,-124.045296,CHILDS
1178,2667,619 BARNHART STREET,46.678288,-123.74205,DOLAN
1179,2674,1504 PACIFIC AVENUE N,46.361979999999996,-124.053955,HEAD
1180,2679,4914 113TH STREET,46.383553000000006,-124.02153,REYNA
1181,2706,20701 CRANE PLACE,46.451344,-124.037704,SAENZ
1182,2721,27904 J LANE,46.503864,-124.05593999999999,HASTINGS
1183,2726,4300 TRESIZE ROAD,46.679344,-123.682625,KENNEY
1184,2728,322 7TH STREET,46.685898,-123.72856000000002,CANO
1185,2729,312 8TH STREET SOUTH,46.347072499999996,-124.0518445,FOREMAN
1186,2731,557 ELK PRAIRIE ROAD,46.53952,-123.47285,DENTON
1187,2732,2122 250TH ST,46.482983000000004,-124.04413000000001,VILLALOBOS
1188,2736,35510 STACKPOLE ROAD,46.5756,-124.03291000000002,PRYOR
1189,2742,1235 HOWARD STREET,46.694916,-123.74724599999999,SARGENT
1190,2750,3607 HUNT CLUBB ROAD,46.64472,-123.6762,DOHERTY
1191,2751,24402 U STREET,46.47873,-124.04456,HOPPER
1192,2753,2101 BAY AVE,46.49155,-124.04418000000001,PHAN
1193,2759,2436 STATE RT 6,46.557957,-123.54146599999999,WOMACK
1194,2770,1701 195TH ST,46.443275,-124.04975,LOCKHART
1195,2779,662 PLUM ST,46.676487,-123.71976000000001,VENTURA
1196,2788,1313 TOWER AVENUE,46.687515000000005,-123.72211999999999,DWYER
1197,2789,18716 SANDRIDGE ROAD,46.437565,-124.02349,MULLER
1198,2800,224 STATE ROUTE 6,46.675343,-123.7045,GALINDO
1199,2809,2950 STATE ROUTE 101,46.338806,-123.952378,GRACE
1200,2837,1515 178TH PLACE,46.431340000000006,-124.0524,SORENSEN
1201,2838,102 LEBAM ROAD,46.562958,-123.56392,COURTNEY
1202,2845,828 JACKSON AVE,46.675827000000005,-123.74408400000002,PARRA
1203,2847,2107 208TH PLACE,46.452746999999995,-124.04508,RODRIGUES
1204,2848,1519 222ND PLACE,46.463104,-124.051025,NICHOLAS
1205,2852,1957 FOWLER ROAD,46.662758000000004,-123.73163000000001,AHMED
1206,2856,1209 201ST LN,46.447803,-124.05318500000001,MCGINNIS
1207,2858,28114 Q STREET,46.506115,-124.04808,LANGLEY
1208,2865,750 MAY ST,46.67658,-123.73828999999999,MADISON
1209,2869,1169 PROSPECT AVENUE,46.673843,-123.78066000000001,LOCKE
1210,2870,2777 EMERSON AVENUE,46.542120000000004,-123.50216,JAMISON
1211,2876,205 14TH STREET,46.685223,-123.72081000000001,NAVA
1212,2892,5907 SANDRIDGE ROAD,46.344868,-124.04133,GUSTAFSON
1213,2911,3812 SANDRIDGE ROAD,46.330207,-124.04330900000001,SYKES
1214,2914,443 MONOHON LANDING ROAD,46.69128,-123.68773,DEMPSEY
1215,2918,335 CAMP ONE RD,46.65984,-123.668365,HAMM
1216,2921,1320 179TH LANE,46.43196,-124.05165,RODRIQUEZ
1217,2926,3687 WILLOW LANE,46.741653,-124.08273,MCGILL
1218,2928,2625 OLDANI RD,46.668440000000004,-123.69793,XIONG
1219,2936,126 NEMAH VALLEY ROAD,46.515114000000004,-123.84776000000001,ESQUIVEL
1220,2967,2902 212TH LANE,46.455788,-124.036575,SIMMS
1221,2975,1710 S 7TH ST,46.347388,-124.05023500000001,KENDRICK
1222,2984,27 PENNY LN,46.62862,-123.634796,BOYCE
1223,2991,30006 G ST,46.520579999999995,-124.057076,VIGIL
1224,2994,955 MILL CREEK RD,46.629765,-123.550896,DOWNEY
1225,3010,2721 STATE ROUTE 6,46.542970000000004,-123.50962,MCKENNA
1226,3024,659 SMITH CREEK RD,46.753334,-123.681595,SIERRA
1227,3029,302 BAY CENTER ROAD,46.608074,-123.95360600000001,WEBBER
1228,3036,24108 GILE PLACE,46.47712,-124.03112,KIRKPATRICK
1229,3048,26812 K LANE,46.49937,-124.05371000000001,DICKINSON
1230,3071,2709 245TH STREET,46.479279999999996,-124.03792,COUCH
1231,3098,108 28TH ST NW,46.373554,-124.05375,BURKS
1232,3111,159 NORTH NEMAH ROAD E,46.5152,-123.8697,SHEEHAN
1233,3120,2002 HENKLE STREET,46.677933,-123.71014,SLAUGHTER
1234,3129,33505 H PLACE,46.542355,-124.05601999999999,PIKE
1235,3149,2025 HENKLE ST,46.67805,-123.71055,WHITLEY
1236,3159,1080 BONNIE LN,46.75375,-124.083626,MAGEE
1237,3163,41 HANEN ROAD,46.560790000000004,-123.61375,CHENG
1238,3165,1920 BLOOMHARDT ROAD,46.66303,-123.720726,SINCLAIR
1239,3180,262 UPPER NASELLE ROAD,46.3717,-123.74472,CASSIDY
1240,3186,907 CRESCENT ST,46.691734000000004,-123.74536,RUTLEDGE
1241,3187,1311 264TH PLACE,46.493713,-124.05179,BURRIS
1242,3210,2902 REDDING RD,46.7681,-124.0729,BOWLING
1243,3219,924 FOWLER STREET,46.674355,-123.7395,CRABTREE
1244,3237,15007 SANDRIDGE ROAD,46.411026,-124.022446,MCNAMARA
1245,3252,25005 Z PL,46.48375,-124.03875,AVALOS
1246,3253,1101 WASHINGTON AVE,46.345290000000006,-124.05343,VU
1247,3265,3720 RICHARDSON STREET,46.6756,-123.68848,HERRON
1248,3277,88 HYLAND STRINGER ROAD,46.586859999999994,-123.64281000000001,BROUSSARD
1249,3320,1608 KRAUS ROAD,46.665752000000005,-123.69034599999999,ABRAHAM
1250,3355,1089 STATE RT 4,46.363392,-123.767499,GARLAND
1251,3369,142 S VALLEY RD,46.367207,-123.798454,CORBETT
1252,3376,1911 OCEAN BEACH BLVD S,46.339518,-124.05680100000001,CORBIN
1253,3383,13208 N PACIFIC WAY,46.39721,-124.05293999999999,STINSON
1254,3384,90 RICHTER ROAD,46.62344,-123.66036000000001,CHIN
1255,3386,21204 J PL,46.5198711,-124.05418440000001,BURT
1256,3402,958 FOWLER ST,46.673984999999995,-123.73951000000001,HUTCHINS
1257,3403,289 KNAPPTON ROAD,46.36294,-123.81182,WOODRUFF
1258,3431,1700 194TH ST,46.44245,-124.04982,LAU
1259,3433,1208 188TH PLACE,46.438297,-124.05373999999999,BRANDON
1260,3437,337 MONOHON LANDING RD,46.690155,-123.70071000000002,SINGER
1261,3439,3808 BURKHALTER ROAD EXT.,46.67203,-123.68561000000001,HATCH
1262,3461,905 OCEAN BEACH BLVD N,46.357475,-124.05496000000001,ROSSI
1263,3465,7104 V PLACE,46.353776,-124.042852,SHAFER
1264,3467,5301 SCHOOL STREET,46.67642,-123.66722,OTT
1265,3475,10 KOVEN ROAD,46.367306,-123.81674,GOSS
1266,3486,3800 199TH COURT,46.445312,-124.02756000000001,GREGG
1267,3492,1708 266TH,46.49507,-124.04812,DEWITT
1268,3499,7484 US HIGHWAY 101,46.666622,-123.91886000000001,TANG
1269,3545,2209 SID SNYDER DRIVE,46.345814600000004,-124.0452055,POLK
1270,3585,30500 K PLACE,46.523309999999995,-124.05341999999999,WORLEY
1271,3606,4208 SANDRIDGE RD,46.333397,-124.04401399999999,COVINGTON
1272,3628,2710 224TH ST,46.464302,-124.037415,SALDANA
1273,3662,1815 GARFIELD ST,46.69292,-123.74023400000002,HELLER
1274,3663,6933 US HIGHWAY 101,46.620434,-123.91888,EMERY
1275,3664,7601 US HWY 101,46.677479999999996,-123.91488999999999,SWARTZ
1276,3702,27012 N PLACE,46.49848529999999,-124.05054950000002,CHO
1277,3717,23502 BIRCH PLACE,46.471725,-124.03707,MCCRAY
1278,3740,519 CHERRY ST,46.679256,-123.72102,ELMORE
1279,3743,432 RUE CREEK RD,46.615328999999996,-123.675137,ROSENBERG
1280,3775,10 RYE LANE,46.587672999999995,-123.61936399999999,SIMONS
1281,3776,17 MC KINNEY ROAD,46.558014,-123.56411000000001,CLEMONS
1282,3778,1483 BLOOMHARDT ROAD,46.667942,-123.71938,BEATTY
1283,3780,31205 I ST,46.528294,-124.05496000000001,HARDEN
1284,3781,29412 T LN,46.514626,-124.044716,HERBERT
1285,3792,10904 SANDRIDGE RD,46.38045,-124.02631000000001,BLAND
1286,3804,29 HOLTZ ROAD,46.611534000000006,-123.906876,RUCKER
1287,3805,52 UPPER NASELLE ROAD,46.367725,-123.77038600000002,MANLEY
1288,3825,120 STRINGTOWN ROAD,46.30912,-123.98395500000001,ZIEGLER
1289,3846,442 WARD CREEK ROAD,46.709465,-123.645195,GRADY
1290,3881,2002 179TH LN,46.431778,-124.04558999999999,LOTT
1291,3888,92 BIGHILL ROAD,46.374496,-123.744446,ROUSE
1292,3904,2709 SEA CREST AVE,46.373033,-124.054645,GLEASON
1293,3913,30500 J PLACE,46.523284999999994,-124.05435,MCCLELLAN
1294,3946,2371 KELSEY STREET,46.675533,-123.70392,ABRAMS
1295,3963,217 ASH STREET,46.682842,-123.74968999999999,VO
1296,3992,27813 L PL,46.50372,-124.05293999999999,ALBRIGHT
1297,4011,545 BALLENTINE,46.679435999999995,-123.74081000000001,MEIER
1298,4038,920 CLAY AVE,46.674812,-123.71808999999999,DUNBAR
1299,4050,2803 231ST LANE,46.468918,-124.03759,ACKERMAN
1300,4061,3807 102ND ST,46.3754,-124.02842,PADGETT
1301,4096,5 MARTIN LN,46.615913,-123.64443999999999,MAYES
1302,4139,276 STATE RT 6,46.672306,-123.69948000000001,TIPTON
1303,4141,24424 SANDRIDGE ROAD,46.478252000000005,-124.03121999999999,COFFMAN
1304,4149,4649 US HIGHWAY 101,46.430363,-123.85672,PERALTA
1305,4157,375 MONOHON LANDING ROAD,46.69052,-123.69655,SHAPIRO
1306,4167,807 355TH PLACE,46.55941,-124.05637,ROE
1307,4192,7207 CAPT GRAY DR,46.316505,-124.00326000000001,WESTON
1308,4243,1205 201ST LANE,46.447803,-124.053215,PLUMMER
1309,4313,158 S FORK ROAD,46.63245,-123.67048999999999,HELTON
1310,4334,9 RUE CREEK ROAD,46.621619,-123.64842800000001,STERN
1311,4346,1155 PAULDING STREET,46.672886,-123.682915,FRASER
1312,4347,1005 WASHINGTON AVENUE,46.3458956,-124.05347330000001,STOVER
1313,4361,217 11TH STREET,46.684914,-123.72401,FISH
1314,4372,43 MILL RANCH RD,46.434242,-123.89438,SCHUMACHER
1315,4393,2 ECKY LANE,46.365840000000006,-123.78631000000001,BACA
1316,4404,139 OVERMEYER ROAD,46.697407,-123.694405,CURRAN
1317,4436,1120 WILLAPA STREET,46.693974,-123.74185,VINSON
1318,4438,24908 PARK AVENUE,46.48301,-124.05136,VERA
1319,4456,34 BAY LANE,46.59672,-123.928215,CLIFTON
1320,4487,2001 HARVARD STREET,46.67546,-123.71068000000001,ERVIN
1321,4507,3900 199TH CT,46.44437,-124.02793,ELDRIDGE
1322,4519,1810 229TH PLACE,46.468154999999996,-124.047455,LOWRY
1323,4660,3208 113TH LANE,46.383904,-124.03419,CHILDRESS
1324,4687,1134 MILL CREEK ROAD,46.633263,-123.53062,BECERRA
1325,4694,1314 164TH PL,46.420746,-124.05385,GORE
1326,4706,29615 O LN,46.516727,-124.04963000000001,SEYMOUR
1327,4726,1361 ANDREW STREET,46.671448,-123.69278,CHU
1328,4732,2812 NORTH RIVER ROAD,46.775005,-123.48058999999999,FIELD
1329,4740,10 SPRUCE LANE,46.646225,-123.924553,AKERS
1330,4817,812 FOWLER STREET,46.67586,-123.73952,CARRASCO
1331,4830,20916 PACIFIC WAY,46.453568,-124.05256999999999,BINGHAM
1332,4849,10515 PACIFIC WAY,46.379265000000004,-124.053055,STERLING
1333,4853,509 RUE CREEK ROAD,46.617573,-123.682076,GREENWOOD
1334,5036,5 HAMMOND ROAD,46.680954,-123.770195,LESLIE
1335,5070,2605 242ND PLACE,46.477463,-124.03886999999999,GROVES
1336,5073,179 LILLY WHEATON ROAD,46.62538,-123.63261399999999,MANUEL
1337,5268,200 24TH ST NE,46.36952,-124.05216000000001,SWAIN
1338,5273,6885 US HWY 101,46.61744,-123.91548,EDMONDS
1339,5288,5455 CENTRAL STREET,46.67276,-123.66474,MUNIZ
1340,5313,30709 H ST,46.525059999999996,-124.05658999999999,THOMSON
1341,5336,812 347TH PL,46.553574,-124.0562,CROUCH
1342,5368,33712 DOUGLAS DRIVE,46.544296,-124.03277,WALDEN
1343,5427,471 SOUTH FORK RD,46.656696000000004,-123.7239,SMART
1344,5469,29014 S LANE,46.512398,-124.04583999999998,TOMLINSON
1345,5521,1610 IDAHO AVENUE N,46.362774,-124.0505,ALFARO
1346,5585,2006 224TH PLACE,46.464447,-124.04585,QUICK
1347,5635,2144 BUSH AVE,46.695103,-123.73562,GOLDMAN
1348,5749,2774 STATE ROUTE 6,46.542107,-123.50518999999998,MCELROY
1349,5803,85 ALEXANDER ROAD,46.65854,-123.66176000000002,YARBROUGH
1350,5852,44 MEADOW LN,46.741005,-123.73321000000001,FUNK
1351,5924,33406 I STREET,46.543957,-124.05547,HONG
1352,6019,33803 T PL,46.512287,-124.0448,PORTILLO
1353,6202,24409 P STREET,46.47905,-124.049995,LUND
1354,6306,488 BUTTE CREEK RD,46.742096000000004,-123.71001000000001,NGO
1355,6534,524 THIRD ST,46.687847,-123.73321000000001,ELKINS
1356,6560,29014 R STREET,46.512409999999996,-124.04688999999999,STROUD
1357,6784,807 324TH PL,46.536995000000005,-124.04988999999999,MEREDITH
1358,6982,5411 SANDRIDGE ROAD,46.341429999999995,-124.04213999999999,BATTLE
1359,7204,524 3RD STREET,46.687847,-123.73321000000001,MCCAULEY
1360,7339,20 SPRUCE LANE,46.664282799999995,-123.80658570000001,ZAPATA
1361,7483,31902 J PL,46.533446999999995,-124.05438000000001,BLOOM
1362,8098,4 ROBERTSON ROAD,46.562927,-123.56064599999999,GEE
1363,8330,32211 R PL,46.535378,-124.04611000000001,GIVENS
1364,8871,428 BUTTE CREEK ROAD,46.74177,-123.70988999999999,CARDONA
1365,9168,1139 STATE ROUTE 4,46.359809999999996,-123.76373000000001,SCHAFER
